{"type":"FeatureCollection","features":[{"type":"Feature","properties":{"id":"IT-65","country":"italy","name":"Abruzzo","aliases":["Abruzzo"]},"geometry":{"type":"Polygon","coordinates":[[[14.3562,42.393],[14.5602,42.2257],[14.7092,42.1755],[14.7295,42.0991],[14.7634,42.0779],[14.7443,42.013],[14.647,41.9477],[14.6446,41.9188],[14.5248,41.7951],[14.4734,41.769],[14.4485,41.7669],[14.4222,41.847],[14.3767,41.8733],[14.348,41.862],[14.2764,41.9053],[14.1916,41.8396],[14.1606,41.8418],[14.1423,41.8242],[14.1829,41.7629],[14.0948,41.7235],[14.063,41.7288],[14.0012,41.6875],[13.9457,41.6882],[13.8728,41.7307],[13.75,41.7518],[13.7148,41.7948],[13.6557,41.8095],[13.5788,41.7699],[13.5452,41.7682],[13.4052,41.8316],[13.3611,41.8287],[13.3638,41.9125],[13.0971,42.0237],[13.0362,42.028],[13.017,42.0546],[13.0137,42.1085],[13.0733,42.1413],[13.0943,42.1731],[13.2415,42.1291],[13.2955,42.1332],[13.3054,42.1675],[13.3675,42.1852],[13.3204,42.195],[13.3051,42.219],[13.2729,42.2287],[13.2275,42.2721],[13.206,42.3188],[13.1576,42.3445],[13.1784,42.3999],[13.1309,42.4308],[13.1318,42.4548],[13.1666,42.4856],[13.1386,42.5454],[13.168,42.5514],[13.1904,42.5877],[13.2913,42.5722],[13.3689,42.586],[13.3863,42.6444],[13.348,42.6596],[13.3376,42.6877],[13.4298,42.7017],[13.4437,42.7288],[13.4901,42.7441],[13.5364,42.8112],[13.665,42.8114],[13.7191,42.863],[13.9055,42.9016],[13.9805,42.7304],[14.0754,42.5988],[14.2206,42.4702],[14.3562,42.393]]]}},{"type":"Feature","properties":{"id":"IT-77","country":"italy","name":"Basilicata","aliases":["Basilicata"]},"geometry":{"type":"Polygon","coordinates":[[[16.7827,40.3016],[16.7307,40.2007],[16.64,40.1187],[16.4211,40.1327],[16.3876,40.0007],[16.344,39.9352],[16.3543,39.9008],[16.3077,39.9359],[16.2627,39.9422],[16.1974,39.9145],[16.0689,39.9067],[16.011,39.954],[16.0213,39.9869],[15.982,39.9789],[15.9464,40.0056],[15.9035,39.9855],[15.8411,40.004],[15.7765,39.9653],[15.7458,39.9246],[15.728,39.9642],[15.6467,40.0469],[15.6643,40.067],[15.6492,40.0777],[15.6931,40.1305],[15.6956,40.1661],[15.7755,40.2198],[15.7891,40.2618],[15.717,40.3184],[15.7013,40.3796],[15.5984,40.4285],[15.5433,40.4778],[15.5151,40.5674],[15.4466,40.6023],[15.4892,40.6583],[15.4352,40.6794],[15.3785,40.7294],[15.3689,40.8022],[15.3443,40.8207],[15.3658,40.8439],[15.3692,40.899],[15.4709,40.9018],[15.5367,40.9333],[15.5779,41.011],[15.5547,41.0692],[15.5832,41.1046],[15.7711,41.1046],[15.8583,41.1368],[15.8961,41.1028],[15.9625,41.0803],[16.0313,41.0169],[15.984,40.9525],[16.11,40.9042],[16.1597,40.9227],[16.1966,40.9114],[16.2348,40.8471],[16.4105,40.706],[16.5093,40.7612],[16.5411,40.7305],[16.538,40.7576],[16.5746,40.7493],[16.5869,40.7623],[16.6912,40.7357],[16.7157,40.7154],[16.6966,40.6972],[16.72,40.674],[16.7113,40.5515],[16.7309,40.4775],[16.7863,40.4735],[16.8633,40.3909],[16.7827,40.3016]]]}},{"type":"Feature","properties":{"id":"IT-78","country":"italy","name":"Calabria","aliases":["Calabria"]},"geometry":{"type":"Polygon","coordinates":[[[16.5614,38.4163],[16.4671,38.3487],[16.3063,38.2771],[16.1694,38.1432],[16.1108,37.9736],[16.0632,37.9327],[16.001,37.919],[15.9421,37.9331],[15.7615,37.9252],[15.6844,37.9535],[15.6351,38.0091],[15.6585,38.0425],[15.624,38.0921],[15.6478,38.1431],[15.6328,38.2203],[15.6506,38.241],[15.7865,38.278],[15.8128,38.3006],[15.9048,38.4739],[15.916,38.5504],[15.8355,38.6282],[15.8366,38.649],[16.0026,38.7254],[16.1526,38.7309],[16.2009,38.7764],[16.2217,38.8566],[16.2147,38.919],[16.1543,38.955],[16.083,39.0753],[16.034,39.3452],[15.9954,39.4388],[15.9331,39.5137],[15.8762,39.5515],[15.8064,39.6955],[15.7697,39.8301],[15.7819,39.8686],[15.7458,39.9246],[15.7765,39.9653],[15.8411,40.004],[15.9035,39.9855],[15.9371,40.0057],[15.982,39.9789],[16.0213,39.9869],[16.011,39.954],[16.0689,39.9067],[16.1974,39.9145],[16.2627,39.9422],[16.3077,39.9359],[16.3543,39.9008],[16.344,39.9352],[16.3876,40.0007],[16.4211,40.1327],[16.64,40.1187],[16.6047,40.0845],[16.5969,40.0468],[16.6316,39.9662],[16.5422,39.8854],[16.4917,39.8055],[16.4898,39.7752],[16.5286,39.7215],[16.5156,39.6896],[16.6248,39.6253],[16.7825,39.6116],[16.8462,39.5527],[17.0115,39.4862],[17.0886,39.4226],[17.1587,39.4062],[17.1222,39.3383],[17.1145,39.2694],[17.1457,39.2107],[17.1245,39.0909],[17.1585,39.0405],[17.2064,39.0295],[17.1724,39.0052],[17.1724,38.9605],[17.104,38.8991],[17.095,38.9191],[17.022,38.906],[16.9573,38.9401],[16.8386,38.9182],[16.7278,38.8789],[16.5856,38.7978],[16.5348,38.6999],[16.5491,38.6899],[16.577,38.5286],[16.5614,38.4163]]]}},{"type":"Feature","properties":{"id":"IT-72","country":"italy","name":"Campania","aliases":["Campania"]},"geometry":{"type":"MultiPolygon","coordinates":[[[[13.8491,40.7153],[13.8701,40.7487],[13.8628,40.7624],[13.9658,40.7351],[13.9658,40.7153],[13.9447,40.7016],[13.8491,40.7153]]],[[[15.6243,40.0778],[15.5349,40.0778],[15.4296,39.9998],[15.3609,39.9989],[15.3143,40.0338],[15.2612,40.0294],[15.2791,40.0477],[15.2634,40.0737],[15.1272,40.1696],[15.0472,40.1689],[15.0031,40.2103],[14.9111,40.2416],[14.9069,40.2586],[14.9391,40.3071],[14.9324,40.3337],[14.9945,40.3584],[14.9983,40.3976],[14.8888,40.5731],[14.782,40.6699],[14.7522,40.6767],[14.6904,40.6491],[14.6257,40.6491],[14.5442,40.6136],[14.4866,40.6326],[14.3426,40.5706],[14.3298,40.5845],[14.3377,40.6244],[14.3874,40.6369],[14.4764,40.6951],[14.4606,40.7442],[14.3944,40.7616],[14.2942,40.8388],[14.2236,40.8314],[14.2035,40.8012],[14.0825,40.8313],[14.0825,40.7835],[14.0477,40.7896],[14.0523,40.8376],[14.0213,40.9218],[13.9653,40.9964],[13.918,41.0237],[13.9107,41.0646],[13.8517,41.1473],[13.7437,41.2376],[13.8049,41.2537],[13.8654,41.3025],[13.8756,41.3885],[13.8622,41.426],[13.9618,41.4707],[13.988,41.4581],[14.0315,41.3981],[14.1044,41.3904],[14.1058,41.4188],[14.0802,41.4477],[14.1209,41.4957],[14.2665,41.4852],[14.4619,41.4231],[14.4959,41.3904],[14.5557,41.3894],[14.5876,41.3701],[14.6592,41.4032],[14.7468,41.4097],[14.7796,41.4447],[14.827,41.4257],[14.9953,41.4821],[15.0936,41.4302],[15.1019,41.3906],[15.0667,41.3585],[15.0753,41.3304],[15.1282,41.3077],[15.1435,41.2746],[15.1871,41.287],[15.2662,41.2416],[15.2029,41.1534],[15.2803,41.1038],[15.406,41.1056],[15.5586,41.0551],[15.5762,41.0266],[15.5367,40.9333],[15.4709,40.9018],[15.3692,40.899],[15.3658,40.8439],[15.3443,40.8207],[15.3689,40.8022],[15.3862,40.7183],[15.4352,40.6794],[15.4876,40.6619],[15.4456,40.6057],[15.5176,40.5647],[15.5396,40.52],[15.5379,40.4846],[15.5984,40.4285],[15.7013,40.3796],[15.717,40.3184],[15.7891,40.2618],[15.7755,40.2198],[15.6956,40.1661],[15.6931,40.1305],[15.6498,40.0808],[15.663,40.061],[15.6467,40.0469],[15.6243,40.0778]]]]}},{"type":"Feature","properties":{"id":"IT-45","country":"italy","name":"Emilia-Romagna","aliases":["Emilia-Romagna"]},"geometry":{"type":"Polygon","coordinates":[[[12.4533,43.9791],[12.3957,43.9484],[12.3856,43.9245],[12.4211,43.8952],[12.4202,43.8782],[12.3515,43.87],[12.335,43.8279],[12.285,43.7947],[12.2858,43.7689],[12.2138,43.763],[12.1852,43.7429],[12.1311,43.764],[12.0678,43.7543],[11.9686,43.7731],[11.885,43.8154],[11.813,43.8244],[11.7089,43.8848],[11.7086,43.9196],[11.6533,43.9864],[11.6512,44.0127],[11.6848,44.0267],[11.7202,44.0702],[11.7414,44.1317],[11.6445,44.1175],[11.5937,44.1259],[11.6041,44.1625],[11.496,44.1665],[11.4319,44.2271],[11.4025,44.2349],[11.2911,44.1708],[11.2002,44.1566],[11.203,44.1383],[11.2551,44.119],[11.2294,44.1027],[11.0415,44.0918],[11.0013,44.1127],[11.0151,44.137],[10.9907,44.14],[10.9192,44.0678],[10.7074,44.162],[10.6455,44.1569],[10.6105,44.1257],[10.5704,44.1256],[10.4839,44.1868],[10.4712,44.2246],[10.4002,44.2359],[10.351,44.2749],[10.2878,44.2824],[10.249,44.2699],[10.1994,44.3183],[10.0726,44.3521],[9.9849,44.4128],[10.0017,44.4282],[9.9944,44.4451],[9.9356,44.4704],[9.8356,44.4763],[9.7514,44.3892],[9.6915,44.3728],[9.6898,44.3577],[9.6514,44.4062],[9.5985,44.4272],[9.5124,44.429],[9.4404,44.4116],[9.4527,44.472],[9.4936,44.5117],[9.4907,44.5549],[9.408,44.5962],[9.3605,44.5819],[9.2904,44.6093],[9.2031,44.6138],[9.2014,44.6821],[9.2421,44.683],[9.2514,44.7157],[9.2925,44.6939],[9.3221,44.7077],[9.3059,44.7588],[9.3552,44.8265],[9.3583,44.8565],[9.307,44.8889],[9.3026,44.9131],[9.425,45.1012],[9.5006,45.1031],[9.5419,45.086],[9.5389,45.1242],[9.5527,45.1348],[9.5904,45.1126],[9.6404,45.1261],[9.6369,45.0939],[9.6814,45.0753],[9.7525,45.082],[9.7645,45.1148],[9.8337,45.0683],[9.8302,45.0963],[9.8959,45.0919],[9.8829,45.1341],[9.9231,45.1301],[9.916,45.108],[9.9866,45.1287],[10.0215,45.1101],[10.0719,45.0375],[10.1835,45.0466],[10.3504,44.984],[10.3992,44.9913],[10.4436,44.9367],[10.5213,44.9162],[10.6012,44.9224],[10.6925,44.9904],[10.7543,44.9765],[10.7645,44.9436],[10.8889,44.9135],[10.9994,44.9534],[11.0905,44.9615],[11.1634,44.9315],[11.2796,44.9427],[11.303,44.9601],[11.4215,44.9499],[11.4319,44.9377],[11.5249,44.94],[11.6223,44.8951],[11.7973,44.9776],[11.8696,44.9854],[12.0872,44.9705],[12.148,44.9334],[12.2876,44.9354],[12.2934,44.8648],[12.3365,44.8486],[12.3497,44.818],[12.3934,44.7935],[12.2923,44.8432],[12.2664,44.8266],[12.28,44.8205],[12.2466,44.7116],[12.2858,44.6027],[12.2837,44.4876],[12.3503,44.2882],[12.39,44.2227],[12.4788,44.1394],[12.5742,44.0856],[12.6609,44.0083],[12.7538,43.9724],[12.7282,43.8791],[12.6799,43.845],[12.6331,43.8425],[12.5878,43.8954],[12.555,43.8752],[12.5423,43.9035],[12.4831,43.9292],[12.4892,43.9731],[12.4533,43.9791]],[[12.1993,43.7805],[12.24,43.8027],[12.2267,43.8144],[12.1776,43.8217],[12.1708,43.8046],[12.1993,43.7805]]]}},{"type":"Feature","properties":{"id":"IT-36","country":"italy","name":"Friuli-Venezia Giulia","aliases":["Friuli-Venezia Giulia","Friuli"]},"geometry":{"type":"Polygon","coordinates":[[[13.5813,45.8092],[13.7787,45.7434],[13.8584,45.6494],[13.8931,45.6347],[13.887,45.6188],[13.8478,45.5847],[13.7118,45.5932],[13.7302,45.6131],[13.8081,45.6143],[13.7393,45.6491],[13.7577,45.655],[13.7537,45.6723],[13.7262,45.7038],[13.6289,45.7726],[13.5742,45.7896],[13.5513,45.7924],[13.5242,45.7601],[13.5283,45.7405],[13.5549,45.7372],[13.4017,45.6754],[13.3767,45.6832],[13.4314,45.7069],[13.4226,45.7241],[13.3694,45.7446],[13.2549,45.756],[13.2155,45.7788],[13.1497,45.7515],[13.1193,45.772],[13.1082,45.7582],[13.1229,45.7372],[13.0806,45.7276],[13.075,45.6968],[13.1497,45.7038],[13.0956,45.6523],[13.0019,45.782],[12.9993,45.8255],[12.9729,45.8426],[12.9468,45.8193],[12.8946,45.8258],[12.8701,45.8468],[12.8267,45.8244],[12.792,45.8562],[12.6902,45.8006],[12.6389,45.8321],[12.5679,45.8389],[12.5263,45.9204],[12.4478,45.9597],[12.419,46.0507],[12.4473,46.0852],[12.4992,46.1066],[12.495,46.1557],[12.4628,46.1784],[12.4529,46.2097],[12.3828,46.2299],[12.3359,46.2695],[12.3704,46.3063],[12.4653,46.3564],[12.5293,46.449],[12.5931,46.4637],[12.6699,46.4591],[12.6464,46.5018],[12.6816,46.525],[12.7602,46.5369],[12.7485,46.641],[12.8304,46.6096],[13.1465,46.585],[13.2311,46.5522],[13.478,46.5636],[13.5068,46.5469],[13.701,46.5197],[13.6775,46.4521],[13.6002,46.4426],[13.53,46.3883],[13.4341,46.3539],[13.3653,46.2903],[13.4101,46.208],[13.4374,46.2109],[13.4228,46.2286],[13.4683,46.2234],[13.559,46.1841],[13.6374,46.1804],[13.645,46.1617],[13.6164,46.125],[13.5051,46.066],[13.4823,46.0448],[13.49,46.0256],[13.4618,46.0064],[13.5094,45.9674],[13.6059,45.9854],[13.6228,45.9664],[13.5693,45.8645],[13.566,45.8303],[13.5813,45.8092]]]}},{"type":"Feature","properties":{"id":"IT-62","country":"italy","name":"Lazio","aliases":["Lazio"]},"geometry":{"type":"Polygon","coordinates":[[[13.7085,41.2564],[13.5944,41.2531],[13.5637,41.238],[13.5755,41.2081],[13.544,41.2066],[13.5144,41.2297],[13.4997,41.2217],[13.3244,41.2948],[13.2858,41.2957],[13.187,41.278],[13.1145,41.2509],[13.0905,41.2265],[13.0446,41.2275],[12.9795,41.331],[12.8936,41.3993],[12.8416,41.4184],[12.7485,41.4237],[12.654,41.4656],[12.6353,41.4475],[12.448,41.6308],[12.3272,41.7114],[12.239,41.7363],[12.1702,41.8796],[12.0388,41.9652],[12.0204,41.9931],[11.9168,42.0379],[11.8275,42.0342],[11.7502,42.1279],[11.6582,42.2794],[11.5391,42.3489],[11.4515,42.3744],[11.4719,42.4186],[11.6018,42.4474],[11.6079,42.4873],[11.5659,42.5161],[11.5882,42.5661],[11.6206,42.5601],[11.6712,42.577],[11.7539,42.6433],[11.7869,42.6512],[11.7889,42.711],[11.8071,42.7425],[11.7505,42.8063],[11.7692,42.8204],[11.808,42.8134],[11.889,42.8504],[11.9735,42.7603],[11.928,42.7166],[11.9543,42.6875],[12.0251,42.6456],[12.1287,42.6573],[12.1524,42.6758],[12.2358,42.6476],[12.2455,42.5855],[12.2715,42.5661],[12.2802,42.5104],[12.3007,42.4899],[12.3428,42.4919],[12.3936,42.4625],[12.4174,42.4285],[12.4515,42.421],[12.4387,42.389],[12.5099,42.3894],[12.533,42.3685],[12.5926,42.401],[12.6121,42.4631],[12.652,42.4438],[12.7222,42.454],[12.7176,42.494],[12.8801,42.5647],[12.8792,42.5903],[12.902,42.6096],[12.9993,42.6089],[13.0176,42.6316],[13.0593,42.6238],[13.1494,42.6432],[13.1878,42.6903],[13.1945,42.7346],[13.2825,42.7395],[13.348,42.6596],[13.3863,42.6444],[13.3689,42.586],[13.2913,42.5722],[13.1861,42.5869],[13.168,42.5514],[13.1363,42.5423],[13.1669,42.4903],[13.1295,42.4362],[13.1784,42.3999],[13.16,42.3408],[13.206,42.3188],[13.2275,42.2721],[13.2729,42.2287],[13.3051,42.219],[13.3204,42.195],[13.3675,42.1852],[13.3054,42.1675],[13.2955,42.1332],[13.2415,42.1291],[13.0943,42.1731],[13.0733,42.1413],[13.0137,42.1085],[13.017,42.0546],[13.0362,42.028],[13.0971,42.0237],[13.3638,41.9125],[13.3611,41.8287],[13.4052,41.8316],[13.5452,41.7682],[13.5992,41.778],[13.6466,41.8105],[13.7148,41.7948],[13.7443,41.7546],[13.8918,41.7237],[13.9702,41.6649],[13.994,41.625],[14.0093,41.5246],[13.9618,41.4707],[13.8602,41.423],[13.8754,41.3936],[13.8654,41.3025],[13.8049,41.2537],[13.7437,41.2376],[13.7085,41.2564]],[[12.454,41.9028],[12.453,41.9039],[12.4527,41.903],[12.454,41.9028]]]}},{"type":"Feature","properties":{"id":"IT-42","country":"italy","name":"Liguria","aliases":["Liguria"]},"geometry":{"type":"Polygon","coordinates":[[[7.4779,43.8655],[7.6309,43.9935],[7.6534,44.0397],[7.6899,44.0673],[7.6879,44.0908],[7.738,44.0994],[7.7296,44.1183],[7.7496,44.1406],[7.9876,44.1129],[8.0032,44.1216],[7.9818,44.1419],[7.9958,44.1604],[8.0575,44.1637],[8.0812,44.1957],[8.0692,44.3078],[8.139,44.3532],[8.1641,44.3994],[8.2058,44.4224],[8.1956,44.4746],[8.2361,44.5323],[8.3596,44.481],[8.4088,44.5159],[8.5642,44.5162],[8.5994,44.5426],[8.6095,44.5853],[8.6321,44.5887],[8.7246,44.5786],[8.7733,44.5013],[8.8257,44.5588],[8.904,44.5652],[8.9066,44.6118],[8.8759,44.6373],[8.9175,44.6811],[8.9447,44.6848],[9.0995,44.6146],[9.1346,44.5835],[9.1793,44.5869],[9.2311,44.62],[9.3605,44.5819],[9.408,44.5962],[9.4803,44.563],[9.4936,44.5117],[9.4527,44.472],[9.4404,44.4116],[9.5909,44.4283],[9.6514,44.4062],[9.7163,44.3299],[9.8521,44.2526],[9.8617,44.1859],[9.9022,44.1999],[9.8986,44.1664],[9.9682,44.16],[9.9899,44.1176],[10.0569,44.0944],[10.0285,44.0493],[9.9885,44.0598],[9.9627,44.0447],[9.888,44.093],[9.8264,44.1072],[9.8245,44.0849],[9.8475,44.0725],[9.8333,44.0521],[9.8464,44.0463],[9.8323,44.0423],[9.8198,44.0634],[9.6826,44.1365],[9.6211,44.1483],[9.4844,44.2438],[9.4368,44.2395],[9.3745,44.2718],[9.3677,44.2944],[9.2306,44.3537],[9.2107,44.3053],[9.1467,44.3286],[9.1301,44.3633],[9.1021,44.374],[8.7624,44.4321],[8.4661,44.3043],[8.4445,44.2839],[8.4354,44.2404],[8.4119,44.227],[8.4082,44.1935],[8.2565,44.1284],[8.2332,44.1036],[8.2163,44.0452],[8.1527,43.9832],[8.168,43.9565],[8.0677,43.8967],[7.9597,43.8529],[7.695,43.7912],[7.5023,43.7922],[7.4779,43.8655]]]}},{"type":"Feature","properties":{"id":"IT-25","country":"italy","name":"Lombardia","aliases":["Lombardia","Lombardy"]},"geometry":{"type":"Polygon","coordinates":[[[9.5426,45.1316],[9.5419,45.086],[9.5006,45.1031],[9.425,45.1012],[9.3831,45.045],[9.3026,44.9131],[9.307,44.8889],[9.3583,44.8565],[9.3552,44.8265],[9.3059,44.7588],[9.3221,44.7077],[9.2925,44.6939],[9.2514,44.7157],[9.2327,44.6788],[9.2014,44.6821],[9.2022,44.7322],[9.1527,44.8105],[9.0759,44.8247],[9.0483,44.8488],[9.0533,44.8805],[8.9724,44.9392],[8.9639,44.9762],[8.8824,45.0005],[8.8808,45.0526],[8.8504,45.0584],[8.751,45.0248],[8.6691,45.0248],[8.6455,45.0412],[8.5566,45.1648],[8.559,45.1931],[8.4985,45.2955],[8.5564,45.3665],[8.6256,45.357],[8.6638,45.3126],[8.7027,45.3048],[8.7145,45.3332],[8.7573,45.3571],[8.735,45.3755],[8.832,45.4082],[8.7724,45.4937],[8.717,45.523],[8.6974,45.603],[8.6646,45.6357],[8.6824,45.6444],[8.677,45.6729],[8.6489,45.6809],[8.6489,45.7172],[8.609,45.7345],[8.5685,45.7895],[8.602,45.8325],[8.5885,45.9103],[8.7246,46.0161],[8.729,46.1082],[8.8089,46.0897],[8.8344,46.0664],[8.7679,45.9831],[8.871,45.9471],[8.9121,45.8834],[8.9,45.8264],[8.9396,45.8348],[9.0024,45.8207],[9.0631,45.899],[9.0108,45.9267],[8.9805,45.9644],[9.0156,45.9931],[9.0021,46.0393],[9.0592,46.0618],[9.0906,46.1382],[9.1632,46.1723],[9.1813,46.2041],[9.2248,46.2312],[9.2752,46.3314],[9.2609,46.4167],[9.238,46.4365],[9.2823,46.4974],[9.3508,46.4979],[9.3846,46.4664],[9.4346,46.4983],[9.4444,46.3753],[9.4826,46.3568],[9.5365,46.2986],[9.6743,46.2918],[9.7084,46.3117],[9.7201,46.3509],[9.7681,46.3386],[9.9184,46.3712],[9.964,46.3561],[9.9776,46.2981],[10.0317,46.2601],[10.0427,46.2205],[10.1458,46.2433],[10.1589,46.2624],[10.0918,46.329],[10.1408,46.4029],[10.0263,46.4463],[10.044,46.467],[10.0281,46.4839],[10.0328,46.533],[10.0712,46.5644],[10.0878,46.6044],[10.2179,46.627],[10.2338,46.618],[10.2347,46.5753],[10.3066,46.5475],[10.4259,46.5353],[10.4518,46.5467],[10.4884,46.4974],[10.5693,46.4809],[10.6277,46.4477],[10.6323,46.3863],[10.5519,46.3644],[10.5279,46.3426],[10.5777,46.3127],[10.5902,46.2334],[10.5654,46.1885],[10.5569,46.1124],[10.5152,46.082],[10.4591,45.985],[10.5001,45.9652],[10.5195,45.9167],[10.5072,45.8775],[10.5259,45.8365],[10.559,45.8244],[10.5609,45.8004],[10.6611,45.8098],[10.6874,45.8453],[10.8449,45.8341],[10.6442,45.6096],[10.643,45.448],[10.6618,45.419],[10.7024,45.4228],[10.7021,45.3824],[10.7179,45.3612],[10.6975,45.3203],[10.7402,45.316],[10.7611,45.2937],[10.7946,45.3072],[10.8486,45.2631],[10.9873,45.1974],[11.0053,45.18],[11.0019,45.1551],[11.0492,45.152],[11.0483,45.1226],[11.0773,45.0995],[11.1549,45.1193],[11.2041,45.1124],[11.1957,45.0634],[11.2728,45.0596],[11.2727,45.0338],[11.419,44.9669],[11.4215,44.9499],[11.303,44.9601],[11.2796,44.9427],[11.1634,44.9315],[11.0831,44.9619],[10.9994,44.9534],[10.8889,44.9135],[10.7645,44.9436],[10.7543,44.9765],[10.6925,44.9904],[10.6012,44.9224],[10.5213,44.9162],[10.4436,44.9367],[10.3992,44.9913],[10.3504,44.984],[10.1835,45.0466],[10.0719,45.0375],[10.0215,45.1101],[9.9866,45.1287],[9.916,45.108],[9.9231,45.1301],[9.8829,45.1341],[9.8959,45.0919],[9.8302,45.0963],[9.8337,45.0683],[9.7645,45.1148],[9.7525,45.082],[9.6814,45.0753],[9.6369,45.0939],[9.6404,45.1261],[9.5904,45.1126],[9.5426,45.1316]]]}},{"type":"Feature","properties":{"id":"IT-57","country":"italy","name":"Marche","aliases":["Marche"]},"geometry":{"type":"Polygon","coordinates":[[[13.9055,42.9016],[13.7191,42.863],[13.665,42.8114],[13.5364,42.8112],[13.4901,42.7441],[13.4437,42.7288],[13.4116,42.6951],[13.3376,42.6877],[13.2679,42.7446],[13.1945,42.7346],[13.2035,42.7598],[13.2503,42.7708],[13.2556,42.8062],[13.234,42.8438],[13.1504,42.8236],[13.1372,42.8495],[13.0431,42.9193],[12.9886,42.9157],[12.9905,42.8928],[12.9721,42.8887],[12.9647,42.9268],[12.9071,42.9715],[12.8928,43.0939],[12.8339,43.143],[12.8568,43.1756],[12.8509,43.2087],[12.7957,43.2785],[12.7912,43.3197],[12.7465,43.3788],[12.7582,43.4612],[12.7127,43.4539],[12.6911,43.4343],[12.6386,43.4436],[12.6089,43.4289],[12.4883,43.522],[12.4317,43.5384],[12.3926,43.5224],[12.3091,43.5521],[12.3097,43.5667],[12.3531,43.5738],[12.3589,43.6194],[12.286,43.5916],[12.2088,43.6109],[12.1958,43.6534],[12.2777,43.6897],[12.3019,43.7289],[12.3158,43.6887],[12.334,43.6891],[12.3576,43.7226],[12.2858,43.7689],[12.285,43.7947],[12.335,43.8279],[12.3515,43.87],[12.3877,43.8838],[12.4171,43.8755],[12.4211,43.8952],[12.4605,43.8953],[12.4831,43.9292],[12.5423,43.9035],[12.555,43.8752],[12.5878,43.8954],[12.6331,43.8425],[12.6799,43.845],[12.7282,43.8791],[12.7538,43.9724],[12.804,43.9669],[12.9289,43.9158],[13.2533,43.7032],[13.4734,43.612],[13.5161,43.6317],[13.5789,43.5729],[13.6156,43.5605],[13.617,43.5313],[13.8348,43.1273],[13.9055,42.9016]],[[12.4448,43.6011],[12.4298,43.6315],[12.4103,43.621],[12.4212,43.5897],[12.4448,43.6011]]]}},{"type":"Feature","properties":{"id":"IT-67","country":"italy","name":"Molise","aliases":["Molise"]},"geometry":{"type":"Polygon","coordinates":[[[14.4619,41.4231],[14.2225,41.4948],[14.1209,41.4957],[14.0802,41.4477],[14.1091,41.3927],[14.0315,41.3981],[13.988,41.4581],[13.9618,41.4707],[14.0093,41.5246],[14.0087,41.5533],[13.9926,41.6283],[13.9457,41.6882],[14.0012,41.6875],[14.063,41.7288],[14.0948,41.7235],[14.1829,41.7629],[14.1423,41.8242],[14.1606,41.8418],[14.1916,41.8396],[14.2764,41.9053],[14.348,41.862],[14.3767,41.8733],[14.4282,41.8424],[14.4485,41.7669],[14.5146,41.7861],[14.6446,41.9188],[14.647,41.9477],[14.7443,42.013],[14.7634,42.0779],[14.8711,42.0318],[14.9937,42.0106],[15.0345,41.9746],[15.1435,41.9312],[15.1343,41.8757],[15.1073,41.8359],[15.1026,41.7638],[15.1131,41.7183],[15.1571,41.7017],[15.0176,41.6197],[14.958,41.6345],[14.9339,41.6201],[14.935,41.526],[14.9953,41.4821],[14.827,41.4257],[14.7796,41.4447],[14.7468,41.4097],[14.6592,41.4032],[14.5876,41.3701],[14.5557,41.3894],[14.4959,41.3904],[14.4619,41.4231]]]}},{"type":"Feature","properties":{"id":"IT-21","country":"italy","name":"Piemonte","aliases":["Piemonte","Piedmont"]},"geometry":{"type":"Polygon","coordinates":[[[7.6419,44.1436],[7.6556,44.1761],[7.6247,44.1801],[7.5836,44.1607],[7.3406,44.1237],[7.145,44.2072],[6.9734,44.2494],[6.8698,44.3629],[6.8772,44.4144],[6.9178,44.4363],[6.8613,44.4749],[6.8357,44.534],[6.9456,44.6254],[6.9343,44.6467],[6.9599,44.6832],[7.0552,44.6849],[6.9984,44.7938],[7.0049,44.828],[6.9327,44.8617],[6.8471,44.8591],[6.7454,44.9078],[6.7279,44.9287],[6.7235,45.0134],[6.6517,45.0356],[6.6366,45.0745],[6.6027,45.1035],[6.7364,45.1573],[6.8441,45.1301],[6.8767,45.1412],[6.8735,45.1659],[6.9138,45.1702],[6.9587,45.2098],[7.0297,45.2282],[7.0622,45.2185],[7.1084,45.2592],[7.0926,45.324],[7.1596,45.3985],[7.1607,45.4109],[7.0968,45.4354],[7.0754,45.4663],[7.1316,45.5099],[7.1431,45.5123],[7.1462,45.4922],[7.2246,45.4842],[7.3855,45.5243],[7.4646,45.5742],[7.538,45.5888],[7.7313,45.5617],[7.8802,45.6027],[7.9195,45.649],[7.9163,45.7297],[7.8747,45.7632],[7.8496,45.9397],[7.8702,45.9404],[7.8982,45.9819],[7.9858,45.9993],[8.0107,46.0297],[8.0253,46.0911],[8.1106,46.127],[8.1323,46.1594],[8.1295,46.196],[8.0731,46.2536],[8.0873,46.2718],[8.1926,46.3092],[8.2815,46.3701],[8.2975,46.3875],[8.2866,46.4054],[8.3163,46.4337],[8.4279,46.4487],[8.4458,46.4124],[8.4232,46.2758],[8.4381,46.2354],[8.5103,46.2079],[8.6018,46.1228],[8.6775,46.0958],[8.729,46.1082],[8.7282,46.022],[8.5905,45.9147],[8.602,45.8325],[8.5654,45.7986],[8.609,45.7345],[8.6489,45.7172],[8.6489,45.6809],[8.677,45.6729],[8.6824,45.6444],[8.6646,45.6357],[8.6974,45.603],[8.717,45.523],[8.7724,45.4937],[8.832,45.4082],[8.735,45.3755],[8.7573,45.3571],[8.7145,45.3332],[8.7027,45.3048],[8.6638,45.3126],[8.6256,45.357],[8.5465,45.3642],[8.5001,45.2877],[8.559,45.1931],[8.5566,45.1648],[8.6455,45.0412],[8.6691,45.0248],[8.751,45.0248],[8.8504,45.0584],[8.8808,45.0526],[8.8824,45.0005],[8.9639,44.9762],[8.9775,44.9333],[9.0533,44.8805],[9.0596,44.8371],[9.1567,44.8067],[9.2059,44.7208],[9.1993,44.5993],[9.1544,44.5813],[9.1209,44.5874],[9.0995,44.6146],[8.9447,44.6848],[8.9175,44.6811],[8.8759,44.6373],[8.9066,44.6118],[8.904,44.5652],[8.8257,44.5588],[8.7733,44.5013],[8.7246,44.5786],[8.6321,44.5887],[8.6095,44.5853],[8.5994,44.5426],[8.5642,44.5162],[8.4088,44.5159],[8.3596,44.481],[8.2361,44.5323],[8.1956,44.4746],[8.2058,44.4224],[8.1641,44.3994],[8.139,44.3532],[8.0692,44.3078],[8.0797,44.1903],[8.0485,44.1588],[8.0066,44.1645],[7.9865,44.1524],[8.0003,44.1161],[7.7575,44.1438],[7.7309,44.1217],[7.738,44.0994],[7.6879,44.0908],[7.6419,44.1436]]]}},{"type":"Feature","properties":{"id":"IT-75","country":"italy","name":"Puglia","aliases":["Puglia","Apulia"]},"geometry":{"type":"Polygon","coordinates":[[[18.0374,40.557],[18.2383,40.4577],[18.4373,40.2679],[18.5161,40.1392],[18.5161,40.1045],[18.4836,40.0552],[18.4341,40.0225],[18.4114,39.9788],[18.3926,39.9161],[18.3892,39.8171],[18.3683,39.7966],[18.2821,39.8332],[18.2113,39.8393],[18.0715,39.9115],[17.9954,39.9953],[18.0203,40.0102],[18.0158,40.0362],[17.9675,40.0573],[18.0029,40.0744],[18.011,40.096],[17.926,40.1763],[17.8997,40.2491],[17.9128,40.2553],[17.8631,40.2856],[17.5121,40.3037],[17.3994,40.331],[17.2002,40.4204],[17.243,40.4414],[17.2479,40.4573],[17.2276,40.4744],[17.2957,40.4732],[17.3233,40.4985],[17.2617,40.4887],[17.2686,40.4962],[17.2474,40.5028],[17.19,40.4819],[17.156,40.5124],[17.0496,40.5191],[16.9761,40.4926],[16.8633,40.3909],[16.7863,40.4735],[16.7309,40.4775],[16.7113,40.5515],[16.72,40.674],[16.6966,40.6972],[16.7157,40.7154],[16.6946,40.7336],[16.5869,40.7623],[16.5746,40.7493],[16.538,40.7576],[16.5411,40.7305],[16.5093,40.7612],[16.4105,40.706],[16.2348,40.8471],[16.1966,40.9114],[16.1597,40.9227],[16.11,40.9042],[15.984,40.9525],[16.0313,41.0169],[15.9625,41.0803],[15.8961,41.1028],[15.8583,41.1368],[15.7711,41.1046],[15.5964,41.1094],[15.5617,41.0861],[15.5586,41.0551],[15.406,41.1056],[15.2751,41.1059],[15.2002,41.1594],[15.2527,41.2072],[15.2446,41.2264],[15.266,41.2354],[15.2625,41.2475],[15.1787,41.2891],[15.1435,41.2746],[15.1282,41.3077],[15.0753,41.3304],[15.0667,41.3585],[15.1019,41.3906],[15.097,41.4258],[14.935,41.526],[14.9339,41.6201],[14.958,41.6345],[15.0176,41.6197],[15.1571,41.7017],[15.1131,41.7183],[15.1026,41.7638],[15.1073,41.8359],[15.1343,41.8757],[15.1435,41.9312],[15.4461,41.9069],[15.6113,41.928],[15.7744,41.9212],[16.0271,41.9441],[16.1405,41.9199],[16.1609,41.8926],[16.1792,41.8933],[16.1843,41.7796],[15.9001,41.6147],[15.8963,41.5364],[15.9611,41.4595],[16.5207,41.2501],[16.5939,41.207],[17.0571,41.0819],[17.2031,41.021],[17.4761,40.8301],[17.7484,40.7476],[17.8439,40.6942],[17.9558,40.6705],[17.9549,40.6469],[18.007,40.6507],[18.0432,40.602],[18.0374,40.557]]]}},{"type":"Feature","properties":{"id":"IT-88","country":"italy","name":"Sardegna","aliases":["Sardegna","Sardinia"]},"geometry":{"type":"MultiPolygon","coordinates":[[[[8.4593,39.0498],[8.437,38.9672],[8.4098,38.9618],[8.3493,39.0622],[8.346,39.0977],[8.3604,39.1181],[8.4446,39.1027],[8.4699,39.0657],[8.4839,39.0698],[8.4593,39.0498]]],[[[8.2246,39.157],[8.2453,39.181],[8.3058,39.1933],[8.312,39.1203],[8.2901,39.0988],[8.2547,39.1071],[8.2573,39.1244],[8.2246,39.157]]],[[[8.5044,39.0909],[8.4828,39.0804],[8.4651,39.1195],[8.4422,39.1181],[8.4354,39.166],[8.4095,39.1693],[8.3718,39.2306],[8.4321,39.3018],[8.4172,39.339],[8.374,39.3789],[8.405,39.4272],[8.3869,39.4698],[8.4634,39.5769],[8.4461,39.7625],[8.5169,39.7021],[8.5658,39.7011],[8.5044,39.7215],[8.5453,39.7829],[8.5181,39.7625],[8.5521,39.8208],[8.5453,39.8786],[8.4942,39.9124],[8.4631,39.9141],[8.4354,39.899],[8.4634,39.899],[8.4354,39.8581],[8.4375,39.8768],[8.3945,39.9127],[8.4071,40.0222],[8.3772,40.0338],[8.4597,40.0573],[8.4873,40.0895],[8.4596,40.216],[8.4761,40.2921],[8.4413,40.3314],[8.386,40.3518],[8.3905,40.4423],[8.3656,40.4921],[8.3317,40.5107],[8.312,40.5781],[8.2673,40.5941],[8.2163,40.5706],[8.196,40.5781],[8.2163,40.6122],[8.1934,40.6175],[8.1618,40.5638],[8.1531,40.5778],[8.1406,40.6252],[8.1738,40.6416],[8.1974,40.6912],[8.1338,40.7289],[8.2153,40.8814],[8.2097,40.9145],[8.1789,40.9282],[8.1823,40.9453],[8.2022,40.9753],[8.229,40.9626],[8.2332,40.9101],[8.3102,40.8507],[8.5205,40.827],[8.5984,40.853],[8.641,40.8965],[8.7092,40.9206],[8.7644,40.9138],[8.8225,40.9473],[8.8811,41.0237],[8.9227,41.0368],[9.0055,41.1219],[9.1419,41.1528],[9.1634,41.1841],[9.1711,41.2429],[9.2306,41.2626],[9.2681,41.2366],[9.2674,41.202],[9.2783,41.195],[9.2853,41.2217],[9.2853,41.195],[9.3125,41.2012],[9.333,41.1876],[9.3352,41.2117],[9.3882,41.1807],[9.4224,41.1807],[9.4087,41.1603],[9.4429,41.133],[9.4429,41.092],[9.4691,41.1462],[9.5239,41.1497],[9.5247,41.133],[9.5596,41.1261],[9.5623,41.0971],[9.5459,41.0777],[9.5391,41.092],[9.5119,41.0163],[9.5322,41.0163],[9.5247,41.0305],[9.5431,41.0369],[9.5527,41.0095],[9.6157,41.0196],[9.6626,41.0026],[9.6512,40.9911],[9.5876,40.9958],[9.5711,40.9349],[9.5042,40.9269],[9.5733,40.9064],[9.6421,40.9206],[9.6141,40.8934],[9.6558,40.876],[9.6633,40.8582],[9.6831,40.8654],[9.724,40.8449],[9.681,40.8298],[9.6898,40.8108],[9.6579,40.7999],[9.7039,40.7594],[9.7445,40.6805],[9.7565,40.5952],[9.8264,40.5296],[9.7617,40.3907],[9.7124,40.3664],[9.6262,40.2631],[9.6311,40.1962],[9.6546,40.1446],[9.7323,40.0839],[9.6873,39.9612],[9.6966,39.9338],[9.7178,39.9338],[9.6843,39.8942],[9.6966,39.8519],[9.6703,39.7938],[9.6763,39.7181],[9.6511,39.6525],[9.653,39.5668],[9.6284,39.5018],[9.6449,39.484],[9.6021,39.3557],[9.6035,39.3262],[9.6346,39.2969],[9.5819,39.2663],[9.5676,39.2381],[9.5799,39.1871],[9.5664,39.1492],[9.5227,39.1249],[9.5186,39.1046],[9.4963,39.1336],[9.4429,39.1244],[9.2922,39.2213],[9.2163,39.228],[9.166,39.1871],[9.1369,39.1943],[9.073,39.2485],[9.0139,39.2639],[9.0379,39.2271],[9.0798,39.2246],[9.0183,39.1461],[9.0187,39.1039],[9.0449,39.0513],[9.0257,38.9953],[9.0046,38.9953],[8.8533,38.878],[8.8054,38.906],[8.8054,38.8854],[8.7666,38.9204],[8.7166,38.9326],[8.6688,38.9106],[8.641,38.8643],[8.6428,38.89],[8.5999,38.8991],[8.6155,38.9476],[8.6033,38.9649],[8.5801,38.9605],[8.5596,39.0567],[8.5044,39.0629],[8.5181,39.0834],[8.5044,39.0909]]],[[[8.2232,41.0336],[8.2756,41.0698],[8.2778,41.1057],[8.3021,41.105],[8.3262,41.1261],[8.3413,41.0741],[8.2512,41.0438],[8.2464,40.9936],[8.2096,40.9958],[8.2232,41.0336]]],[[[9.46,41.2424],[9.4795,41.2242],[9.4704,41.1721],[9.437,41.1859],[9.46,41.2424]]],[[[9.4353,41.217],[9.377,41.2133],[9.3731,41.2299],[9.4219,41.2609],[9.4353,41.217]]]]}},{"type":"Feature","properties":{"id":"IT-82","country":"italy","name":"Sicilia","aliases":["Sicilia","Sicily"]},"geometry":{"type":"MultiPolygon","coordinates":[[[[12.6213,35.5134],[12.6111,35.4892],[12.5983,35.4943],[12.5261,35.5167],[12.6213,35.5134]]],[[[11.9513,36.8428],[11.9873,36.8242],[11.9995,36.8359],[12.0376,36.8066],[12.0535,36.7676],[12.0306,36.7414],[11.9612,36.7652],[11.9222,36.8284],[11.9513,36.8428]]],[[[13.7158,37.1714],[13.5692,37.2735],[13.4526,37.2988],[13.278,37.3937],[13.2533,37.4318],[13.1741,37.487],[13.0264,37.4932],[13.0,37.5355],[12.9426,37.5685],[12.6594,37.5651],[12.5778,37.652],[12.5062,37.6655],[12.427,37.797],[12.465,37.8228],[12.4787,37.8812],[12.4641,37.9129],[12.5029,37.9971],[12.4929,38.0214],[12.5763,38.0717],[12.6084,38.0624],[12.6624,38.1163],[12.7046,38.1108],[12.7254,38.1259],[12.7199,38.1755],[12.7318,38.1928],[12.7609,38.181],[12.8184,38.0779],[12.9011,38.0281],[13.0614,38.0835],[13.0713,38.0955],[13.0547,38.1418],[13.1009,38.1901],[13.2072,38.1761],[13.239,38.207],[13.3181,38.2206],[13.3719,38.1728],[13.3914,38.1032],[13.5135,38.1105],[13.5413,38.0941],[13.5474,38.0562],[13.6511,38.001],[13.7908,37.9736],[14.0205,38.0494],[14.0833,38.0238],[14.2732,38.0151],[14.4319,38.0494],[14.4641,38.0372],[14.5117,38.0444],[14.6346,38.0815],[14.7337,38.1576],[14.9071,38.1877],[14.945,38.1818],[14.9697,38.1592],[15.049,38.1518],[15.0879,38.1282],[15.1774,38.1563],[15.2407,38.2412],[15.2372,38.2648],[15.2454,38.2172],[15.2918,38.207],[15.3997,38.2326],[15.5287,38.3026],[15.6516,38.2753],[15.5697,38.227],[15.5599,38.1998],[15.5759,38.2002],[15.5003,38.0849],[15.2131,37.7615],[15.2202,37.7067],[15.1638,37.5677],[15.0967,37.4945],[15.0967,37.3437],[15.1107,37.3218],[15.2175,37.285],[15.252,37.2577],[15.2612,37.2338],[15.2449,37.2462],[15.2202,37.2202],[15.2217,37.2375],[15.2054,37.2447],[15.1834,37.2075],[15.2165,37.1552],[15.2476,37.1587],[15.2292,37.1496],[15.2466,37.1182],[15.3032,37.1012],[15.3027,37.0625],[15.2879,37.069],[15.2837,37.0484],[15.3211,37.0402],[15.3324,37.0116],[15.3089,37.0178],[15.2681,37.0004],[15.2681,36.9731],[15.1747,36.9441],[15.1584,36.9242],[15.094,36.7995],[15.1349,36.6877],[15.1145,36.6599],[15.0736,36.6591],[15.021,36.6994],[14.9824,36.6889],[14.8822,36.7307],[14.7808,36.6994],[14.6846,36.726],[14.6589,36.7538],[14.5822,36.7813],[14.4873,36.7934],[14.3945,36.945],[14.2788,37.044],[14.1263,37.1123],[13.8944,37.1008],[13.8327,37.1396],[13.7158,37.1714]]],[[[12.2997,37.9193],[12.2732,37.9395],[12.3547,37.927],[12.3688,37.9252],[12.3577,37.914],[12.2997,37.9193]]],[[[12.0371,37.9737],[12.036,37.991],[12.0536,37.9924],[12.0793,37.9503],[12.0371,37.9737]]],[[[13.196,38.7115],[13.1768,38.693],[13.1531,38.7023],[13.1693,38.7173],[13.196,38.7115]]],[[[14.9663,38.4329],[15.0073,38.3777],[14.9868,38.3641],[14.9453,38.4123],[14.9663,38.4329]]],[[[14.9487,38.4509],[14.8994,38.4817],[14.9006,38.4987],[14.9248,38.5224],[14.9579,38.522],[14.9793,38.4814],[14.9526,38.4814],[14.9663,38.4534],[14.9487,38.4509]]],[[[14.8617,38.5393],[14.7938,38.5716],[14.867,38.5811],[14.877,38.5695],[14.8617,38.5393]]],[[[14.5516,38.5616],[14.5462,38.588],[14.5855,38.5574],[14.5736,38.5565],[14.5516,38.5616]]],[[[15.2393,38.804],[15.2061,38.7752],[15.187,38.7927],[15.2278,38.8103],[15.2393,38.804]]]]}},{"type":"Feature","properties":{"id":"IT-52","country":"italy","name":"Toscana","aliases":["Toscana","Tuscany"]},"geometry":{"type":"MultiPolygon","coordinates":[[[[10.8618,42.3663],[10.883,42.3922],[10.8958,42.3867],[10.9398,42.3307],[10.9089,42.3253],[10.8618,42.3663]]],[[[10.0843,42.6147],[10.0954,42.577],[10.0718,42.5727],[10.0503,42.5819],[10.0843,42.6147]]],[[[10.4251,42.7408],[10.4307,42.7221],[10.4155,42.7089],[10.3379,42.7648],[10.3137,42.743],[10.3045,42.7598],[10.2654,42.7446],[10.2454,42.7573],[10.2352,42.7359],[10.1472,42.7373],[10.1068,42.7574],[10.1014,42.784],[10.1582,42.8173],[10.2422,42.8032],[10.2659,42.8044],[10.2721,42.8273],[10.3268,42.8262],[10.3221,42.8117],[10.3473,42.8059],[10.4124,42.8734],[10.4434,42.8454],[10.4203,42.7764],[10.3888,42.7635],[10.4251,42.7408]]],[[[9.8015,43.0078],[9.7846,43.0284],[9.8258,43.0746],[9.8548,43.0443],[9.823,43.0085],[9.8015,43.0078]]],[[[10.4776,42.9901],[10.5171,43.0239],[10.5391,43.0794],[10.5466,43.1471],[10.5282,43.2468],[10.437,43.3886],[10.3172,43.4926],[10.264,43.8094],[10.2101,43.9202],[10.1058,44.0168],[10.0285,44.0493],[10.0532,44.0995],[9.9899,44.1176],[9.9682,44.16],[9.8986,44.1664],[9.9022,44.1999],[9.8617,44.1859],[9.8521,44.2526],[9.7518,44.3056],[9.687,44.3636],[9.7514,44.3892],[9.8356,44.4763],[9.8966,44.4795],[9.9899,44.448],[10.002,44.4326],[9.9913,44.4066],[10.0726,44.3521],[10.1994,44.3183],[10.249,44.2699],[10.2878,44.2824],[10.351,44.2749],[10.4002,44.2359],[10.4712,44.2246],[10.4839,44.1868],[10.5704,44.1256],[10.6105,44.1257],[10.6455,44.1569],[10.7074,44.162],[10.9192,44.0678],[10.9907,44.14],[11.0151,44.137],[11.0013,44.1127],[11.0415,44.0918],[11.246,44.1069],[11.2551,44.119],[11.203,44.1383],[11.2002,44.1566],[11.2911,44.1708],[11.3343,44.2066],[11.4186,44.2322],[11.496,44.1665],[11.6041,44.1625],[11.5937,44.1259],[11.7457,44.1301],[11.6952,44.0384],[11.6524,44.0177],[11.6507,43.9909],[11.6856,43.962],[11.7089,43.8848],[11.8093,43.8264],[12.0678,43.7543],[12.1311,43.764],[12.1852,43.7429],[12.2138,43.763],[12.2782,43.7713],[12.3576,43.7226],[12.3248,43.6834],[12.3019,43.7289],[12.2777,43.6897],[12.1958,43.6534],[12.2048,43.6168],[12.1375,43.5316],[12.0976,43.5183],[12.1339,43.4812],[12.0382,43.4211],[12.0737,43.4112],[12.0777,43.3739],[12.1326,43.3573],[12.1387,43.3],[12.1735,43.2968],[12.1985,43.3188],[12.215,43.2949],[12.0967,43.2455],[12.029,43.2502],[12.0096,43.1969],[11.9562,43.1763],[11.9227,43.1376],[11.9298,43.0686],[11.9635,43.0731],[11.9773,43.0522],[11.9322,42.9272],[11.9481,42.886],[11.808,42.8134],[11.7747,42.821],[11.7527,42.8087],[11.7472,42.7985],[11.8071,42.7425],[11.7889,42.711],[11.7869,42.6512],[11.7539,42.6433],[11.6712,42.577],[11.6206,42.5601],[11.5882,42.5661],[11.5659,42.5161],[11.6079,42.4873],[11.6018,42.4474],[11.4871,42.4305],[11.4515,42.3744],[11.3766,42.4069],[11.333,42.4006],[11.2456,42.4223],[11.2113,42.4189],[11.1838,42.3663],[11.1066,42.3913],[11.0868,42.4184],[11.0991,42.4429],[11.1642,42.4398],[11.1884,42.4803],[11.1869,42.5208],[11.1585,42.564],[11.1287,42.5581],[11.0778,42.6322],[11.0057,42.6679],[10.99,42.7103],[10.9436,42.743],[10.7313,42.8044],[10.7649,42.8353],[10.7777,42.8947],[10.7635,42.9183],[10.6325,42.9585],[10.5391,42.9491],[10.5466,42.9348],[10.5186,42.9253],[10.4776,42.9901]]],[[[12.1708,43.8046],[12.1776,43.8217],[12.2332,43.8126],[12.2394,43.7995],[12.1993,43.7805],[12.1708,43.8046]]]]}},{"type":"Feature","properties":{"id":"IT-32","country":"italy","name":"Trentino-Alto Adige","aliases":["Trentino-Alto Adige","Trentino-South Tyrol","Trentino-Alto Adige/Südtirol","South Tyrol"]},"geometry":{"type":"Polygon","coordinates":[[[11.8342,46.4838],[11.8957,46.4548],[11.861,46.4271],[11.8482,46.381],[11.7992,46.3532],[11.848,46.3079],[11.8535,46.2737],[11.8929,46.2719],[11.9274,46.2506],[11.9204,46.2228],[11.9664,46.1988],[11.9673,46.1851],[11.8842,46.1282],[11.7069,46.0994],[11.6848,45.9843],[11.6136,45.9756],[11.5642,46.0141],[11.495,46.0124],[11.3875,45.9789],[11.383,45.9448],[11.359,45.9229],[11.3107,45.9377],[11.2745,45.915],[11.2005,45.8109],[11.1849,45.7547],[11.1307,45.6996],[11.0113,45.7146],[10.9318,45.6819],[10.8703,45.7221],[10.9002,45.7841],[10.8939,45.8061],[10.8267,45.8412],[10.6874,45.8453],[10.6653,45.8115],[10.5847,45.7942],[10.5229,45.8413],[10.5069,45.8822],[10.5195,45.9167],[10.5001,45.9652],[10.4591,45.985],[10.5152,46.082],[10.5569,46.1124],[10.5654,46.1885],[10.5902,46.2334],[10.5777,46.3127],[10.5279,46.3426],[10.5582,46.3667],[10.6189,46.3754],[10.6387,46.4111],[10.6168,46.4601],[10.4824,46.5015],[10.4518,46.5467],[10.4659,46.5785],[10.4591,46.6236],[10.3956,46.6388],[10.3692,46.6724],[10.3944,46.7008],[10.3997,46.7355],[10.4287,46.7556],[10.4172,46.7989],[10.4449,46.8232],[10.4538,46.8644],[10.5277,46.8432],[10.6471,46.8638],[10.739,46.8295],[10.7487,46.8194],[10.7169,46.7952],[10.7229,46.7864],[10.8341,46.7802],[10.8704,46.7641],[10.9969,46.7691],[11.0528,46.8149],[11.0919,46.9124],[11.1745,46.9639],[11.3138,46.9873],[11.4112,46.9705],[11.4718,47.0071],[11.5244,46.9883],[11.5965,47.0004],[11.6838,46.9919],[11.7349,46.9706],[11.9436,47.0382],[12.015,47.0405],[12.1162,47.0766],[12.2042,47.0797],[12.2036,47.0533],[12.1112,46.993],[12.1417,46.928],[12.1269,46.9089],[12.2666,46.8681],[12.2691,46.7886],[12.3427,46.7651],[12.3704,46.7112],[12.405,46.6901],[12.4696,46.6758],[12.3992,46.6397],[12.3887,46.6194],[12.3407,46.6282],[12.2081,46.5949],[12.1744,46.637],[12.0897,46.6668],[12.022,46.5394],[11.8519,46.5142],[11.8322,46.504],[11.8342,46.4838]]]}},{"type":"Feature","properties":{"id":"IT-55","country":"italy","name":"Umbria","aliases":["Umbria"]},"geometry":{"type":"MultiPolygon","coordinates":[[[[12.8801,42.5647],[12.7176,42.494],[12.7222,42.454],[12.652,42.4438],[12.6121,42.4631],[12.5926,42.401],[12.533,42.3685],[12.5099,42.3894],[12.4387,42.389],[12.4515,42.421],[12.4174,42.4285],[12.3936,42.4625],[12.3428,42.4919],[12.3007,42.4899],[12.2802,42.5104],[12.2715,42.5661],[12.2455,42.5855],[12.2358,42.6476],[12.1524,42.6758],[12.1287,42.6573],[12.0251,42.6456],[11.9303,42.7091],[11.9735,42.7603],[11.889,42.8504],[11.9498,42.8894],[11.9322,42.9272],[11.9778,43.0464],[11.9635,43.0731],[11.9332,43.0638],[11.9178,43.1224],[11.9446,43.1679],[12.0096,43.1969],[12.029,43.2502],[12.0967,43.2455],[12.2132,43.291],[12.1985,43.3188],[12.1735,43.2968],[12.1387,43.3],[12.1326,43.3573],[12.0808,43.3719],[12.0737,43.4112],[12.0371,43.4165],[12.1313,43.4775],[12.1295,43.4963],[12.0976,43.5183],[12.1375,43.5316],[12.2048,43.6168],[12.286,43.5916],[12.3589,43.6194],[12.3531,43.5738],[12.3097,43.5667],[12.3091,43.5521],[12.3926,43.5224],[12.4317,43.5384],[12.4883,43.522],[12.6089,43.4289],[12.6386,43.4436],[12.6911,43.4343],[12.7127,43.4539],[12.7582,43.4612],[12.7465,43.3788],[12.7912,43.3197],[12.7957,43.2785],[12.8509,43.2087],[12.8568,43.1756],[12.8339,43.143],[12.8928,43.0939],[12.8958,43.0072],[12.9131,42.9634],[12.9647,42.9268],[12.9721,42.8887],[12.9905,42.8928],[12.9886,42.9157],[13.0431,42.9193],[13.1372,42.8495],[13.1504,42.8236],[13.2243,42.8477],[13.2395,42.8385],[13.2563,42.8025],[13.2503,42.7708],[13.1993,42.756],[13.1878,42.6903],[13.1539,42.6451],[13.0593,42.6238],[13.0176,42.6316],[12.9993,42.6089],[12.902,42.6096],[12.8792,42.5903],[12.8801,42.5647]]],[[[12.4398,43.5942],[12.4089,43.6011],[12.4162,43.6278],[12.443,43.6197],[12.4398,43.5942]]]]}},{"type":"Feature","properties":{"id":"IT-23","country":"italy","name":"Valle d'Aosta","aliases":["Valle d'Aosta","Aosta Valley","Vallée d'Aoste","Aosta"]},"geometry":{"type":"Polygon","coordinates":[[[7.0221,45.9253],[7.0902,45.8805],[7.1535,45.8765],[7.2867,45.9134],[7.3938,45.9157],[7.5411,45.9841],[7.643,45.9663],[7.7063,45.9257],[7.8312,45.9145],[7.8496,45.9397],[7.8635,45.806],[7.8794,45.7551],[7.915,45.7382],[7.9195,45.649],[7.8802,45.6027],[7.7493,45.5641],[7.538,45.5888],[7.4646,45.5742],[7.3855,45.5243],[7.2328,45.4855],[7.1462,45.4922],[7.1379,45.5117],[7.0754,45.4663],[6.9828,45.5111],[6.9529,45.5943],[6.9634,45.6407],[6.8161,45.6968],[6.7959,45.7181],[6.782,45.7775],[6.8008,45.8265],[6.8434,45.8386],[6.8644,45.8269],[6.8735,45.8448],[6.949,45.8578],[7.0221,45.9253]]]}},{"type":"Feature","properties":{"id":"IT-34","country":"italy","name":"Veneto","aliases":["Veneto"]},"geometry":{"type":"MultiPolygon","coordinates":[[[[12.4309,45.4157],[12.3762,45.4226],[12.3215,45.348],[12.3718,45.4249],[12.4075,45.4306],[12.4309,45.4157]]],[[[12.3166,45.4431],[12.3472,45.4588],[12.3638,45.4497],[12.3206,45.4298],[12.3166,45.4431]]],[[[12.2967,45.0886],[12.3408,45.0814],[12.3762,45.039],[12.3552,45.0246],[12.3688,45.011],[12.3866,45.0388],[12.3688,45.0656],[12.4862,44.9765],[12.4992,44.9837],[12.4861,44.9912],[12.5026,44.9914],[12.5339,44.97],[12.5127,44.9223],[12.499,44.9215],[12.4873,44.8623],[12.4446,44.8205],[12.424,44.8546],[12.4383,44.9011],[12.4069,44.8913],[12.3916,44.8588],[12.4159,44.8436],[12.3967,44.8266],[12.424,44.8205],[12.398,44.7938],[12.3497,44.818],[12.3365,44.8486],[12.2934,44.8648],[12.2876,44.9354],[12.148,44.9334],[12.0872,44.9705],[11.9783,44.9856],[11.7973,44.9776],[11.6223,44.8951],[11.5249,44.94],[11.4319,44.9377],[11.419,44.9669],[11.2727,45.0338],[11.2728,45.0596],[11.1957,45.0634],[11.2041,45.1124],[11.1549,45.1193],[11.0773,45.0995],[11.0483,45.1226],[11.0492,45.152],[11.0019,45.1551],[11.0053,45.18],[10.9873,45.1974],[10.8486,45.2631],[10.7946,45.3072],[10.7611,45.2937],[10.7402,45.316],[10.6975,45.3203],[10.7179,45.3612],[10.7021,45.3824],[10.7024,45.4228],[10.6618,45.419],[10.643,45.448],[10.6442,45.6096],[10.8449,45.8341],[10.8846,45.8169],[10.8995,45.79],[10.8725,45.7178],[10.9318,45.6819],[11.0113,45.7146],[11.1307,45.6996],[11.1849,45.7547],[11.2005,45.8109],[11.2745,45.915],[11.3107,45.9377],[11.359,45.9229],[11.383,45.9448],[11.3875,45.9789],[11.495,46.0124],[11.5642,46.0141],[11.6136,45.9756],[11.6848,45.9843],[11.7069,46.0994],[11.8107,46.1069],[11.9022,46.1366],[11.9713,46.1931],[11.9226,46.2198],[11.9246,46.2531],[11.8535,46.2737],[11.848,46.3079],[11.7992,46.3532],[11.8482,46.381],[11.861,46.4271],[11.8957,46.4548],[11.8342,46.4838],[11.8322,46.504],[12.022,46.5394],[12.0897,46.6668],[12.1744,46.637],[12.2081,46.5949],[12.3407,46.6282],[12.3887,46.6194],[12.3992,46.6397],[12.4696,46.6758],[12.5473,46.6522],[12.7485,46.641],[12.7602,46.5369],[12.6816,46.525],[12.6464,46.5018],[12.6699,46.4591],[12.5931,46.4637],[12.5293,46.449],[12.4653,46.3564],[12.3704,46.3063],[12.3365,46.2664],[12.3828,46.2299],[12.4529,46.2097],[12.4628,46.1784],[12.495,46.1557],[12.4992,46.1066],[12.4473,46.0852],[12.419,46.0507],[12.4478,45.9597],[12.5263,45.9204],[12.5679,45.8389],[12.6389,45.8321],[12.6902,45.8006],[12.792,45.8562],[12.8267,45.8244],[12.8701,45.8468],[12.8946,45.8258],[12.9468,45.8193],[12.9729,45.8426],[12.9993,45.8255],[13.0019,45.782],[13.0956,45.6523],[13.0606,45.6367],[12.9439,45.6286],[12.7808,45.5535],[12.4237,45.4381],[12.4103,45.4362],[12.4309,45.484],[12.4514,45.4982],[12.4719,45.4859],[12.465,45.5045],[12.5151,45.4927],[12.5215,45.519],[12.5817,45.5529],[12.5373,45.5358],[12.5066,45.5733],[12.4419,45.5303],[12.4514,45.5119],[12.4036,45.5181],[12.3967,45.5393],[12.3841,45.523],[12.424,45.4982],[12.3504,45.5049],[12.2727,45.4636],[12.2461,45.4113],[12.259,45.3952],[12.2453,45.3611],[12.2238,45.3539],[12.2322,45.3406],[12.2163,45.3162],[12.1545,45.3135],[12.1491,45.2922],[12.1807,45.258],[12.1994,45.2746],[12.1974,45.2996],[12.2173,45.2938],[12.2249,45.2512],[12.2111,45.243],[12.2473,45.1969],[12.3073,45.2307],[12.298,45.2154],[12.3211,45.1723],[12.3285,45.101],[12.3073,45.1284],[12.2967,45.0886]]]]}}]}