{"type":"FeatureCollection","features":[{"type":"Feature","properties":{"id":"spain-andalucia","country":"spain","name":"Andalucía","aliases":["Andalucía","Andalusia"]},"geometry":{"type":"Polygon","coordinates":[[[-5.3825,36.1723],[-5.4254,36.1798],[-5.4379,36.1615],[-5.4287,36.0808],[-5.4455,36.0574],[-5.6118,36.0065],[-5.6297,36.0368],[-5.6894,36.0671],[-5.7131,36.06],[-5.7961,36.0855],[-5.9172,36.1841],[-5.9836,36.177],[-6.0368,36.1895],[-6.1047,36.2807],[-6.1595,36.3043],[-6.1842,36.3707],[-6.2184,36.4025],[-6.2796,36.5113],[-6.31,36.5341],[-6.2894,36.5373],[-6.2575,36.5138],[-6.2315,36.4727],[-6.1794,36.5135],[-6.2244,36.5108],[-6.2349,36.5758],[-6.2832,36.6124],[-6.3947,36.6369],[-6.4379,36.7333],[-6.4145,36.7676],[-6.3456,36.795],[-6.3382,36.8837],[-6.3044,36.9072],[-6.2233,36.9023],[-6.1948,36.9321],[-6.2397,36.9134],[-6.2836,36.9259],[-6.3447,36.9013],[-6.3467,36.8199],[-6.388,36.8082],[-6.4996,36.9597],[-6.7449,37.1014],[-6.8929,37.1666],[-6.9176,37.2151],[-6.8527,37.2952],[-6.9311,37.2339],[-6.9626,37.2338],[-6.9285,37.1723],[-7.101,37.2243],[-7.1273,37.2147],[-7.0856,37.2065],[-7.3279,37.2016],[-7.3814,37.1799],[-7.4144,37.1928],[-7.4689,37.4756],[-7.5297,37.5672],[-7.5143,37.6014],[-7.4716,37.6369],[-7.444,37.7302],[-7.3344,37.8119],[-7.3069,37.8508],[-7.2686,37.9492],[-7.2727,37.977],[-7.1597,37.9968],[-7.1233,38.04],[-7.024,38.0226],[-6.9506,38.1984],[-6.9338,38.2093],[-6.7979,38.1729],[-6.8131,38.1188],[-6.8019,38.1087],[-6.6173,38.0868],[-6.5717,38.0239],[-6.4848,38.0164],[-6.424,38.0568],[-6.3724,38.0312],[-6.3563,38.0],[-6.1833,37.939],[-6.1141,37.9786],[-5.9521,38.008],[-5.9109,38.0665],[-5.9154,38.1141],[-5.8371,38.1743],[-5.7275,38.1883],[-5.6917,38.1538],[-5.7341,38.1297],[-5.7282,38.0954],[-5.6936,38.0913],[-5.6235,38.1369],[-5.581,38.1351],[-5.5334,38.1676],[-5.5213,38.2668],[-5.5671,38.3363],[-5.5694,38.4253],[-5.4196,38.5158],[-5.3624,38.5839],[-5.3068,38.5855],[-5.2558,38.6344],[-5.1808,38.666],[-5.1594,38.7179],[-5.0366,38.7284],[-4.946,38.6837],[-4.883,38.6852],[-4.8493,38.6149],[-4.728,38.5798],[-4.6105,38.497],[-4.5431,38.4729],[-4.4497,38.396],[-4.29,38.3489],[-4.2755,38.3509],[-4.2748,38.388],[-4.2561,38.4028],[-3.8937,38.3816],[-3.7784,38.4273],[-3.6071,38.4017],[-3.5887,38.4077],[-3.5768,38.4435],[-3.5536,38.4502],[-3.5191,38.4133],[-3.4452,38.4065],[-3.3959,38.4264],[-3.3619,38.4733],[-3.3228,38.4824],[-3.1373,38.4528],[-3.0606,38.4826],[-3.0009,38.4301],[-2.9666,38.4686],[-2.9235,38.4763],[-2.879,38.4606],[-2.756,38.5331],[-2.6752,38.5002],[-2.5738,38.502],[-2.5715,38.4276],[-2.4887,38.3987],[-2.4776,38.3081],[-2.4303,38.2588],[-2.4489,38.2223],[-2.4448,38.1882],[-2.5474,38.0806],[-2.3385,38.0265],[-2.2962,38.0006],[-2.2322,37.9264],[-2.1718,37.8964],[-1.9757,37.8659],[-2.0028,37.788],[-2.0007,37.6538],[-1.8264,37.4454],[-1.7324,37.4384],[-1.6416,37.381],[-1.8127,37.2071],[-1.8552,37.0766],[-1.9061,36.9876],[-1.9003,36.9412],[-1.9889,36.9005],[-2.0712,36.7753],[-2.1467,36.7299],[-2.2036,36.7371],[-2.2828,36.8101],[-2.3617,36.8368],[-2.4331,36.8163],[-2.4814,36.8299],[-2.5608,36.8188],[-2.6172,36.7284],[-2.6589,36.6948],[-2.7183,36.682],[-2.7567,36.6804],[-2.821,36.7139],[-2.8483,36.7002],[-2.9333,36.7517],[-2.9877,36.7371],[-3.2279,36.7548],[-3.3296,36.7449],[-3.4152,36.6955],[-3.4776,36.6961],[-3.516,36.721],[-3.5498,36.7124],[-3.6011,36.7426],[-3.7313,36.7241],[-3.8385,36.752],[-3.961,36.7268],[-4.0567,36.748],[-4.1102,36.7257],[-4.2247,36.7124],[-4.4032,36.7239],[-4.4333,36.7107],[-4.5248,36.5807],[-4.5878,36.5738],[-4.615,36.5306],[-4.6593,36.5076],[-4.7228,36.493],[-4.9027,36.5065],[-4.9942,36.4571],[-5.0625,36.4522],[-5.1866,36.4112],[-5.2537,36.2971],[-5.2906,36.2774],[-5.2853,36.2608],[-5.3341,36.1878],[-5.3388,36.1411],[-5.3584,36.1411],[-5.3825,36.1723]]]}},{"type":"Feature","properties":{"id":"spain-aragon","country":"spain","name":"Aragón","aliases":["Aragón"]},"geometry":{"type":"Polygon","coordinates":[[[-1.1627,40.0115],[-1.0841,40.0393],[-1.08,40.0658],[-1.1511,40.1101],[-1.2347,40.123],[-1.2946,40.2016],[-1.32,40.1874],[-1.3245,40.1493],[-1.4485,40.1498],[-1.4444,40.1967],[-1.5417,40.1979],[-1.6601,40.283],[-1.719,40.2898],[-1.7206,40.3354],[-1.8083,40.402],[-1.6998,40.4933],[-1.6986,40.5424],[-1.6778,40.5853],[-1.5957,40.5698],[-1.5512,40.5951],[-1.5374,40.663],[-1.557,40.7252],[-1.5388,40.7768],[-1.5446,40.8174],[-1.601,40.8587],[-1.6219,40.9468],[-1.8169,41.097],[-1.9449,41.1644],[-2.0532,41.1504],[-2.1491,41.1939],[-2.1719,41.3278],[-2.128,41.3768],[-2.1163,41.4314],[-2.0997,41.4426],[-2.0521,41.435],[-2.0306,41.3854],[-1.9459,41.4155],[-1.9753,41.4911],[-1.9883,41.5955],[-1.9646,41.6087],[-1.9235,41.603],[-1.8543,41.6526],[-1.8159,41.6617],[-1.7882,41.7057],[-1.8459,41.7907],[-1.816,41.8517],[-1.8516,41.9061],[-1.8524,42.0012],[-1.7677,41.9906],[-1.7042,41.9551],[-1.6394,41.9576],[-1.5559,41.9116],[-1.4907,41.9227],[-1.4147,41.9108],[-1.316,42.0371],[-1.3165,42.0628],[-1.3507,42.0727],[-1.3925,42.1208],[-1.4164,42.2206],[-1.384,42.3004],[-1.331,42.358],[-1.3491,42.3792],[-1.342,42.4148],[-1.2727,42.4876],[-1.2782,42.532],[-1.2574,42.5532],[-1.2053,42.5581],[-1.1548,42.6018],[-1.1723,42.6135],[-1.145,42.6414],[-1.0445,42.65],[-1.0246,42.6961],[-0.9645,42.7103],[-0.867,42.7699],[-0.8462,42.8495],[-0.8062,42.9044],[-0.7714,42.9184],[-0.745,42.9187],[-0.7301,42.8775],[-0.6483,42.8498],[-0.569,42.7726],[-0.5356,42.7842],[-0.5339,42.808],[-0.4239,42.7907],[-0.3228,42.8425],[-0.2351,42.7862],[-0.1614,42.7953],[-0.1578,42.7607],[-0.119,42.7169],[-0.0389,42.6851],[0.1692,42.7265],[0.2384,42.7104],[0.2754,42.6687],[0.3542,42.7175],[0.4093,42.6823],[0.6756,42.6887],[0.7163,42.6257],[0.7689,42.6056],[0.7303,42.5007],[0.7014,42.4843],[0.7464,42.3905],[0.7434,42.2707],[0.7055,42.1784],[0.7031,42.1203],[0.6516,42.0019],[0.5661,41.9389],[0.5933,41.9137],[0.5936,41.8675],[0.5009,41.8124],[0.4646,41.7674],[0.4059,41.753],[0.3285,41.6774],[0.3515,41.6072],[0.424,41.5929],[0.4412,41.5461],[0.3974,41.4943],[0.3512,41.4776],[0.3485,41.4332],[0.3242,41.3902],[0.3273,41.3701],[0.374,41.3389],[0.3524,41.2792],[0.3604,41.2328],[0.3133,41.2069],[0.2931,41.1583],[0.2066,41.1118],[0.2278,41.0432],[0.2742,41.0189],[0.2897,40.9825],[0.2496,40.8886],[0.2672,40.8143],[0.2274,40.7717],[0.1675,40.7432],[0.173,40.7309],[0.045,40.6962],[0.0182,40.7261],[-0.0745,40.7308],[-0.1839,40.7794],[-0.2234,40.7453],[-0.2341,40.6948],[-0.3045,40.6633],[-0.3458,40.6739],[-0.3773,40.6602],[-0.3746,40.6182],[-0.2944,40.6058],[-0.2979,40.5137],[-0.2722,40.4757],[-0.3399,40.4427],[-0.2865,40.3717],[-0.3909,40.2956],[-0.4059,40.2511],[-0.4955,40.2305],[-0.55,40.2351],[-0.57,40.1535],[-0.6177,40.1071],[-0.6143,40.0717],[-0.6839,40.0444],[-0.7539,40.0398],[-0.7751,40.0014],[-0.8244,39.9815],[-0.8387,39.9526],[-0.8325,39.9194],[-0.7913,39.8775],[-0.8882,39.8552],[-0.9121,39.9064],[-0.9048,39.9346],[-0.9231,39.956],[-1.0003,39.9792],[-1.1294,39.964],[-1.1627,40.0115]],[[-1.0672,42.4458],[-1.0986,42.4822],[-1.1333,42.4566],[-1.1085,42.4367],[-1.0755,42.4326],[-1.0672,42.4458]],[[-1.1656,42.4119],[-1.1639,42.4409],[-1.1945,42.4243],[-1.1904,42.4028],[-1.1656,42.4119]]]}},{"type":"Feature","properties":{"id":"spain-asturias","country":"spain","name":"Asturias","aliases":["Asturias","Principality of Asturias","Principado de Asturias"]},"geometry":{"type":"Polygon","coordinates":[[[-7.0469,43.4837],[-7.0014,43.5567],[-6.944,43.566],[-6.7037,43.5576],[-6.6487,43.579],[-6.5101,43.5475],[-6.463,43.555],[-6.4691,43.5754],[-6.4176,43.5611],[-6.3146,43.5686],[-6.2228,43.5959],[-6.178,43.5754],[-6.0692,43.5697],[-6.0235,43.5884],[-5.9074,43.5884],[-5.9074,43.6368],[-5.8635,43.6414],[-5.8522,43.663],[-5.8038,43.6505],[-5.7089,43.5686],[-5.6968,43.5828],[-5.6775,43.5611],[-5.4242,43.5611],[-5.3939,43.5552],[-5.3907,43.5413],[-5.4139,43.5065],[-5.3568,43.5386],[-5.2999,43.5377],[-5.1779,43.4894],[-4.9752,43.4588],[-4.941,43.4717],[-4.7349,43.4171],[-4.5138,43.4028],[-4.5133,43.3844],[-4.5373,43.3483],[-4.5187,43.306],[-4.5372,43.2772],[-4.5926,43.2982],[-4.6432,43.2722],[-4.7157,43.2647],[-4.7427,43.1921],[-4.8319,43.1887],[-4.8594,43.2234],[-4.9085,43.2373],[-5.0629,43.1788],[-5.1181,43.1086],[-5.374,43.0897],[-5.3985,43.0565],[-5.4734,43.0511],[-5.4908,43.0286],[-5.541,43.0218],[-5.7052,43.0488],[-5.73,43.0406],[-5.7787,42.9747],[-5.8048,42.9706],[-5.9187,42.9988],[-5.9547,43.0176],[-5.9878,43.0623],[-6.0791,43.0651],[-6.122,43.0279],[-6.1997,43.041],[-6.2344,43.0144],[-6.3649,43.0514],[-6.3928,43.0422],[-6.4187,43.0005],[-6.4803,42.9879],[-6.4448,42.9577],[-6.5016,42.9297],[-6.5621,42.9167],[-6.7011,42.9245],[-6.7635,42.8928],[-6.8283,42.9148],[-6.8369,42.9627],[-6.8689,42.9887],[-6.9137,42.9947],[-6.9513,43.0251],[-6.9664,42.9943],[-6.9885,43.0193],[-6.9452,43.0767],[-6.8772,43.0918],[-6.8315,43.1202],[-6.8476,43.1592],[-6.8738,43.1746],[-6.8985,43.1491],[-6.9593,43.1388],[-6.9738,43.1592],[-6.9656,43.195],[-7.051,43.2373],[-7.0713,43.2977],[-7.1216,43.3368],[-7.13,43.3786],[-7.1701,43.3908],[-7.1609,43.4291],[-7.1127,43.4293],[-7.0469,43.4837]]]}},{"type":"Feature","properties":{"id":"spain-canary-is","country":"spain","name":"Canarias","aliases":["Canarias","Canary Is.","Canary Islands","Islas Canarias"]},"geometry":{"type":"MultiPolygon","coordinates":[[[[-17.9795,27.6425],[-18.0158,27.6535],[-18.0531,27.6912],[-18.1269,27.7003],[-18.1604,27.7224],[-18.1672,27.7576],[-18.1405,27.7688],[-18.0568,27.7565],[-17.9899,27.8237],[-17.9339,27.852],[-17.884,27.8276],[-17.8851,27.7979],[-17.9652,27.687],[-17.9795,27.6425]]],[[[-15.3916,27.8998],[-15.3778,27.8523],[-15.453,27.7912],[-15.5397,27.7656],[-15.578,27.7344],[-15.6857,27.7633],[-15.7397,27.8043],[-15.786,27.8442],[-15.8212,27.9218],[-15.8161,27.996],[-15.7498,28.036],[-15.7084,28.0819],[-15.7062,28.1674],[-15.4587,28.1342],[-15.435,28.1409],[-15.4387,28.1749],[-15.4053,28.1779],[-15.4086,28.0749],[-15.3916,28.0302],[-15.3636,28.0097],[-15.3767,27.9575],[-15.3636,27.9346],[-15.3916,27.8998]]],[[[-17.185,28.0316],[-17.2579,28.0246],[-17.3101,28.0535],[-17.3432,28.0977],[-17.3388,28.171],[-17.3097,28.2071],[-17.2592,28.2177],[-17.1161,28.1462],[-17.0984,28.1008],[-17.185,28.0316]]],[[[-16.6927,27.9998],[-16.7279,28.0786],[-16.8371,28.209],[-16.8472,28.2625],[-16.9161,28.355],[-16.8374,28.3911],[-16.7701,28.3663],[-16.6642,28.4007],[-16.5846,28.4011],[-16.5071,28.4241],[-16.4204,28.4906],[-16.4083,28.5198],[-16.3227,28.5535],[-16.3164,28.5721],[-16.2027,28.564],[-16.1413,28.5834],[-16.1177,28.5721],[-16.1271,28.5438],[-16.2314,28.4884],[-16.2961,28.4178],[-16.3555,28.3812],[-16.3581,28.3146],[-16.4192,28.2114],[-16.4277,28.1497],[-16.5458,28.024],[-16.5797,28.0303],[-16.6927,27.9998]]],[[[-13.8287,28.5516],[-13.8566,28.479],[-13.8429,28.4069],[-13.9337,28.2442],[-14.1916,28.1708],[-14.3013,28.0679],[-14.3432,28.0507],[-14.5071,28.0712],[-14.4969,28.1025],[-14.3989,28.1112],[-14.2401,28.2016],[-14.2135,28.2349],[-14.2019,28.3039],[-14.1409,28.4349],[-14.0361,28.5874],[-13.9999,28.7167],[-13.9354,28.7495],[-13.8646,28.7442],[-13.8355,28.7155],[-13.8212,28.6367],[-13.8287,28.5516]]],[[[-17.7653,28.6775],[-17.7456,28.6219],[-17.8371,28.4554],[-17.8651,28.4754],[-17.8797,28.5437],[-17.9631,28.6715],[-17.9761,28.7282],[-18.0022,28.7496],[-17.9968,28.7801],[-17.9111,28.8556],[-17.8417,28.8354],[-17.8014,28.8493],[-17.7558,28.8185],[-17.7414,28.7579],[-17.7219,28.749],[-17.721,28.7306],[-17.7653,28.6775]]],[[[-13.4519,29.086],[-13.4656,29.0239],[-13.5105,28.9775],[-13.6198,28.9284],[-13.7093,28.9147],[-13.7746,28.8396],[-13.8673,28.8649],[-13.8763,28.8888],[-13.8429,28.9215],[-13.8321,29.0004],[-13.7809,29.0649],[-13.6902,29.0909],[-13.6368,29.1269],[-13.5372,29.1383],[-13.483,29.2399],[-13.4654,29.2433],[-13.4178,29.2089],[-13.4388,29.159],[-13.4587,29.1474],[-13.4519,29.086]]],[[[-13.4867,29.2846],[-13.4779,29.2663],[-13.5171,29.2263],[-13.5412,29.2368],[-13.5082,29.2895],[-13.4867,29.2846]]]]}},{"type":"Feature","properties":{"id":"spain-cantabria","country":"spain","name":"Cantabria","aliases":["Cantabria"]},"geometry":{"type":"MultiPolygon","coordinates":[[[[-4.4817,43.3836],[-4.4325,43.4026],[-4.3793,43.3836],[-4.3594,43.3997],[-4.1886,43.4054],[-4.0128,43.4525],[-3.9814,43.4383],[-3.961,43.4451],[-3.9746,43.4588],[-3.9227,43.4826],[-3.8267,43.497],[-3.7692,43.4792],[-3.8443,43.4451],[-3.8202,43.4243],[-3.7723,43.4525],[-3.745,43.4383],[-3.7555,43.4717],[-3.7289,43.4655],[-3.7179,43.4827],[-3.5544,43.5169],[-3.5563,43.4997],[-3.4283,43.4617],[-3.4286,43.4468],[-3.47,43.4542],[-3.5017,43.4308],[-3.4611,43.4125],[-3.447,43.4308],[-3.2105,43.3898],[-3.1506,43.3602],[-3.1495,43.3244],[-3.2035,43.2923],[-3.3229,43.3001],[-3.4309,43.2435],[-3.445,43.2242],[-3.4238,43.1406],[-3.5001,43.1407],[-3.6478,43.1762],[-3.7662,43.0934],[-3.8383,43.0847],[-3.8549,43.0477],[-3.9526,42.9992],[-3.9848,42.9258],[-3.9461,42.9044],[-3.8813,42.9439],[-3.8485,42.941],[-3.8341,42.9216],[-3.8982,42.8986],[-3.9046,42.8615],[-3.8853,42.8512],[-3.8621,42.872],[-3.8314,42.8723],[-3.8158,42.81],[-3.9652,42.7625],[-4.0002,42.7698],[-4.0028,42.8236],[-4.0472,42.7701],[-4.0858,42.7631],[-4.1852,42.812],[-4.1355,42.8395],[-4.1412,42.8588],[-4.2214,42.8502],[-4.2399,42.9502],[-4.3566,42.9854],[-4.4096,43.0383],[-4.4629,43.0509],[-4.5524,43.0239],[-4.7269,43.0159],[-4.7705,43.0786],[-4.8279,43.1081],[-4.8319,43.1887],[-4.7345,43.1969],[-4.7157,43.2647],[-4.6432,43.2722],[-4.5926,43.2982],[-4.5298,43.2817],[-4.5187,43.306],[-4.5373,43.3483],[-4.5123,43.4027],[-4.4817,43.3836]]],[[[-3.2674,43.2274],[-3.2992,43.2169],[-3.3042,43.2607],[-3.2674,43.2274]]]]}},{"type":"Feature","properties":{"id":"spain-castilla-y-leon","country":"spain","name":"Castilla y León","aliases":["Castilla y León","Castile and León"]},"geometry":{"type":"MultiPolygon","coordinates":[[[[-4.7,40.2756],[-4.8008,40.2657],[-4.827,40.2176],[-4.9035,40.174],[-4.9517,40.1228],[-5.0031,40.1171],[-5.0145,40.1509],[-5.0323,40.1548],[-5.1412,40.0948],[-5.1906,40.0894],[-5.328,40.1159],[-5.3615,40.1648],[-5.3546,40.2552],[-5.4236,40.2431],[-5.4863,40.2013],[-5.5398,40.1974],[-5.6038,40.2194],[-5.6869,40.2815],[-5.7277,40.294],[-5.7836,40.2861],[-5.7816,40.3234],[-5.8042,40.343],[-5.8751,40.3217],[-5.8965,40.29],[-5.9256,40.2815],[-6.0932,40.3537],[-6.0691,40.4002],[-6.2241,40.4803],[-6.5155,40.3524],[-6.5531,40.3278],[-6.5561,40.2871],[-6.5851,40.272],[-6.8147,40.2444],[-6.8745,40.2792],[-6.7944,40.3564],[-6.8513,40.4095],[-6.8571,40.4421],[-6.8125,40.5146],[-6.8505,40.5822],[-6.8143,40.6472],[-6.8391,40.7575],[-6.8367,40.8402],[-6.8162,40.8568],[-6.8553,40.8872],[-6.8852,40.9489],[-6.9404,41.0034],[-6.9279,41.0479],[-6.818,41.0541],[-6.7648,41.1089],[-6.7552,41.1588],[-6.6466,41.2676],[-6.5635,41.2707],[-6.4959,41.2949],[-6.3996,41.3775],[-6.3792,41.3775],[-6.3792,41.3973],[-6.3211,41.411],[-6.2829,41.4656],[-6.2795,41.497],[-6.2059,41.5703],[-6.2722,41.6282],[-6.3659,41.6636],[-6.4608,41.6766],[-6.503,41.6531],[-6.5415,41.6589],[-6.5774,41.7397],[-6.5242,41.8674],[-6.5758,41.8829],[-6.5676,41.9261],[-6.5851,41.9547],[-6.6095,41.9623],[-6.6228,41.941],[-6.728,41.9309],[-6.7579,41.9376],[-6.7944,41.9797],[-6.8249,41.9838],[-6.8312,41.954],[-6.855,41.9429],[-6.9451,41.9434],[-6.9835,41.963],[-6.966,42.033],[-7.0198,42.0562],[-7.0247,42.0757],[-6.8984,42.2002],[-6.8668,42.217],[-6.8055,42.2179],[-6.7383,42.305],[-6.7405,42.3503],[-6.8391,42.4101],[-6.813,42.4389],[-6.8211,42.4851],[-6.92,42.5128],[-6.9831,42.4948],[-7.071,42.5035],[-7.0428,42.5776],[-7.0443,42.6171],[-7.0143,42.6413],[-7.0377,42.6982],[-6.9657,42.747],[-6.9286,42.7501],[-6.8633,42.8084],[-6.8605,42.8745],[-6.8283,42.9148],[-6.7635,42.8928],[-6.7011,42.9245],[-6.5621,42.9167],[-6.5016,42.9297],[-6.4448,42.9577],[-6.4803,42.9879],[-6.4187,43.0005],[-6.3928,43.0422],[-6.3649,43.0514],[-6.2344,43.0144],[-6.1997,43.041],[-6.122,43.0279],[-6.0791,43.0651],[-5.9878,43.0623],[-5.9547,43.0176],[-5.9187,42.9988],[-5.8448,42.9717],[-5.7893,42.9724],[-5.73,43.0406],[-5.7052,43.0488],[-5.541,43.0218],[-5.4908,43.0286],[-5.4734,43.0511],[-5.3985,43.0565],[-5.374,43.0897],[-5.1181,43.1086],[-5.0629,43.1788],[-4.8984,43.2385],[-4.8594,43.2234],[-4.8319,43.1887],[-4.8279,43.1081],[-4.7705,43.0786],[-4.7269,43.0159],[-4.5524,43.0239],[-4.434,43.048],[-4.3566,42.9854],[-4.2399,42.9502],[-4.216,42.8453],[-4.1502,42.8622],[-4.1344,42.8535],[-4.1416,42.8345],[-4.1877,42.8177],[-4.1586,42.7935],[-4.1104,42.786],[-4.0858,42.7631],[-4.0472,42.7701],[-4.0028,42.8236],[-4.0002,42.7698],[-3.9652,42.7625],[-3.8158,42.81],[-3.8314,42.8723],[-3.8621,42.872],[-3.8853,42.8512],[-3.9046,42.8615],[-3.8982,42.8986],[-3.8341,42.9216],[-3.8485,42.941],[-3.8813,42.9439],[-3.9461,42.9044],[-3.9848,42.9258],[-3.9526,42.9992],[-3.8549,43.0477],[-3.8317,43.0884],[-3.7662,43.0934],[-3.6478,43.1762],[-3.452,43.1389],[-3.3624,43.1579],[-3.2683,43.1999],[-3.1515,43.1814],[-3.1418,43.1651],[-3.1726,43.1314],[-3.1418,43.1041],[-3.1651,43.0267],[-3.0849,43.0107],[-3.0553,43.0431],[-3.0286,43.0473],[-2.9874,43.0089],[-2.9993,42.9895],[-3.0396,42.978],[-2.9834,42.951],[-2.9791,42.9336],[-3.0847,42.9055],[-3.141,42.9161],[-3.1661,42.9429],[-3.2241,42.9438],[-3.2801,42.8804],[-3.2174,42.8297],[-3.1957,42.8603],[-3.1142,42.8869],[-3.1125,42.8683],[-3.1512,42.8176],[-3.129,42.7863],[-3.1363,42.7699],[-3.0635,42.7853],[-3.0314,42.7727],[-2.8373,42.6441],[-2.9067,42.6263],[-3.0142,42.6409],[-3.0721,42.6321],[-3.0605,42.5994],[-3.1139,42.5484],[-3.1107,42.5368],[-3.0724,42.5352],[-3.0832,42.4915],[-3.0492,42.4523],[-3.056,42.3803],[-3.1094,42.3435],[-3.0879,42.27],[-3.1204,42.1963],[-3.0263,42.088],[-2.9342,42.0827],[-2.9102,42.0234],[-2.8709,42.0147],[-2.8016,42.0473],[-2.7739,42.1125],[-2.7354,42.1201],[-2.7123,42.094],[-2.7436,42.0225],[-2.6718,42.0005],[-2.5729,42.0001],[-2.5157,42.0688],[-2.5084,42.1103],[-2.4105,42.1386],[-2.2961,42.1378],[-2.2563,42.0894],[-2.1718,42.1055],[-2.1278,42.0967],[-2.1494,42.0508],[-2.1067,42.0092],[-2.1161,41.9781],[-2.0952,41.9527],[-1.9679,41.9184],[-1.8577,41.9548],[-1.8516,41.9061],[-1.816,41.8517],[-1.8459,41.7907],[-1.7882,41.7057],[-1.8159,41.6617],[-1.8543,41.6526],[-1.9235,41.603],[-1.9646,41.6087],[-1.9883,41.5955],[-1.9753,41.4911],[-1.9459,41.4155],[-2.0306,41.3854],[-2.0452,41.4308],[-2.0997,41.4426],[-2.1196,41.4237],[-2.128,41.3768],[-2.1719,41.3278],[-2.1451,41.1866],[-2.0532,41.1504],[-2.0594,41.0795],[-2.1371,41.1183],[-2.1776,41.0907],[-2.237,41.089],[-2.2884,41.0675],[-2.3645,41.0807],[-2.4225,41.0654],[-2.4604,41.0797],[-2.5228,41.1526],[-2.5863,41.1496],[-2.5795,41.1724],[-2.61,41.1917],[-2.5919,41.222],[-2.6981,41.248],[-2.7281,41.2728],[-2.8441,41.2679],[-2.8972,41.3214],[-2.9823,41.2872],[-3.0838,41.2808],[-3.1988,41.3012],[-3.2492,41.2666],[-3.3398,41.2536],[-3.4169,41.2641],[-3.4113,41.2136],[-3.5196,41.1622],[-3.6239,41.1394],[-3.743,41.0518],[-3.7871,40.9968],[-3.9021,40.9585],[-3.9479,40.9083],[-3.9841,40.7887],[-4.0901,40.7691],[-4.1613,40.6873],[-4.174,40.6229],[-4.2421,40.6028],[-4.2903,40.6216],[-4.2845,40.5841],[-4.319,40.544],[-4.3248,40.4133],[-4.4188,40.4025],[-4.4695,40.3201],[-4.5376,40.3341],[-4.5316,40.2893],[-4.5719,40.212],[-4.6394,40.1971],[-4.679,40.2113],[-4.7,40.2756]],[[-4.2763,40.6927],[-4.2993,40.6962],[-4.3219,40.6579],[-4.2584,40.6616],[-4.2763,40.6927]]],[[[-2.5561,42.7564],[-2.6008,42.7044],[-2.5661,42.6745],[-2.5258,42.6895],[-2.5153,42.6493],[-2.6341,42.6548],[-2.7524,42.6818],[-2.8141,42.7029],[-2.8702,42.7447],[-2.8166,42.794],[-2.7261,42.7951],[-2.5561,42.7564]]]]}},{"type":"Feature","properties":{"id":"spain-castilla-la-mancha","country":"spain","name":"Castilla-La Mancha","aliases":["Castilla-La Mancha","Castile-La Mancha"]},"geometry":{"type":"Polygon","coordinates":[[[-1.1053,38.7075],[-1.1199,38.7401],[-1.1742,38.7541],[-1.2432,38.7381],[-1.3342,38.6867],[-1.3858,38.6969],[-1.4336,38.6558],[-1.4543,38.5897],[-1.502,38.5349],[-1.4779,38.4037],[-1.4947,38.3731],[-1.5673,38.3262],[-1.6267,38.3114],[-1.6781,38.3269],[-1.6909,38.3702],[-1.7505,38.3803],[-1.9262,38.291],[-1.9928,38.2795],[-2.0429,38.2984],[-2.1274,38.2352],[-2.2119,38.1959],[-2.3509,38.0236],[-2.5474,38.0806],[-2.4448,38.1882],[-2.4489,38.2223],[-2.4306,38.2656],[-2.4776,38.3081],[-2.4887,38.3987],[-2.5674,38.4228],[-2.5714,38.4999],[-2.5988,38.5099],[-2.6752,38.5002],[-2.756,38.5331],[-2.879,38.4606],[-2.9235,38.4763],[-2.9666,38.4686],[-3.0009,38.4301],[-3.0606,38.4826],[-3.1373,38.4528],[-3.3228,38.4824],[-3.3619,38.4733],[-3.3959,38.4264],[-3.4573,38.4048],[-3.5191,38.4133],[-3.5536,38.4502],[-3.5768,38.4435],[-3.5887,38.4077],[-3.6071,38.4017],[-3.7784,38.4273],[-3.8937,38.3816],[-4.2561,38.4028],[-4.2748,38.388],[-4.2755,38.3509],[-4.29,38.3489],[-4.4057,38.3796],[-4.4601,38.4009],[-4.5431,38.4729],[-4.6105,38.497],[-4.728,38.5798],[-4.8493,38.6149],[-4.8735,38.6807],[-4.946,38.6837],[-5.0366,38.7284],[-4.9814,38.7496],[-4.9197,38.8772],[-4.8457,38.892],[-4.8401,38.9396],[-4.9206,38.9641],[-4.9541,39.0456],[-4.9286,39.0515],[-4.8773,39.0326],[-4.8347,39.0476],[-4.8674,39.1061],[-4.847,39.1655],[-4.8068,39.1988],[-4.7273,39.1965],[-4.6584,39.1739],[-4.7157,39.2321],[-4.7562,39.3062],[-4.7109,39.3441],[-4.6779,39.4176],[-4.6927,39.4498],[-4.767,39.4046],[-4.8801,39.3669],[-4.9665,39.4062],[-5.0392,39.4781],[-5.0792,39.4928],[-5.1964,39.5877],[-5.1518,39.663],[-5.1417,39.7203],[-5.1654,39.7472],[-5.1592,39.7718],[-5.1757,39.7965],[-5.2087,39.7927],[-5.254,39.754],[-5.3081,39.7583],[-5.3143,39.7934],[-5.2893,39.8617],[-5.3215,39.8875],[-5.3862,39.881],[-5.365,40.0933],[-5.328,40.1159],[-5.1507,40.0916],[-5.0323,40.1548],[-5.0145,40.1509],[-5.0031,40.1171],[-4.9662,40.1179],[-4.827,40.2176],[-4.8008,40.2657],[-4.7,40.2756],[-4.672,40.2067],[-4.6255,40.1976],[-4.5719,40.212],[-4.5206,40.1988],[-4.4397,40.2392],[-4.3659,40.3095],[-4.3499,40.2983],[-4.341,40.2493],[-4.296,40.2208],[-4.2341,40.2689],[-4.1747,40.2837],[-4.1326,40.2518],[-4.0573,40.2583],[-3.999,40.2216],[-3.7938,40.165],[-3.7587,40.1378],[-3.6733,40.1319],[-3.6141,40.1065],[-3.6337,40.0434],[-3.7786,39.9537],[-3.8739,39.9267],[-3.8257,39.8954],[-3.6387,39.9683],[-3.6327,39.9917],[-3.5267,40.0232],[-3.5021,40.0487],[-3.3718,40.0574],[-3.3419,40.0446],[-3.1873,40.0884],[-3.1635,40.0662],[-3.0938,40.0726],[-3.0622,40.1053],[-3.0857,40.1457],[-3.0728,40.1576],[-3.0831,40.2277],[-3.1154,40.2761],[-3.1711,40.2425],[-3.1859,40.2495],[-3.178,40.3126],[-3.1531,40.3362],[-3.1387,40.3947],[-3.1571,40.4254],[-3.1965,40.4435],[-3.2045,40.513],[-3.2485,40.5415],[-3.293,40.5355],[-3.2931,40.5685],[-3.326,40.5978],[-3.3182,40.6463],[-3.3555,40.6497],[-3.3892,40.6864],[-3.4343,40.6755],[-3.4588,40.695],[-3.4397,40.7232],[-3.4464,40.7614],[-3.4984,40.7962],[-3.4698,40.863],[-3.4474,40.8805],[-3.4516,40.907],[-3.4098,41.0122],[-3.4365,41.0774],[-3.484,41.095],[-3.5458,41.1618],[-3.4113,41.2136],[-3.4169,41.2641],[-3.3398,41.2536],[-3.2492,41.2666],[-3.1988,41.3012],[-3.0838,41.2808],[-2.9823,41.2872],[-2.9097,41.3221],[-2.8796,41.3146],[-2.8441,41.2679],[-2.7281,41.2728],[-2.6981,41.248],[-2.5919,41.222],[-2.61,41.1917],[-2.5795,41.1724],[-2.5863,41.1496],[-2.5228,41.1526],[-2.4604,41.0797],[-2.4225,41.0654],[-2.3645,41.0807],[-2.2884,41.0675],[-2.237,41.089],[-2.1776,41.0907],[-2.1371,41.1183],[-2.0653,41.0769],[-2.0532,41.1504],[-1.9449,41.1644],[-1.7673,41.065],[-1.6219,40.9468],[-1.6088,40.8719],[-1.5396,40.8007],[-1.5567,40.7354],[-1.5371,40.6841],[-1.5512,40.5951],[-1.5957,40.5698],[-1.6778,40.5853],[-1.6986,40.5424],[-1.6998,40.4933],[-1.8083,40.402],[-1.7206,40.3354],[-1.719,40.2898],[-1.6601,40.283],[-1.5417,40.1979],[-1.4394,40.1924],[-1.4523,40.1307],[-1.4129,40.1048],[-1.3695,40.0163],[-1.243,39.9974],[-1.1627,40.0115],[-1.1455,39.9723],[-1.2066,39.9386],[-1.2029,39.8633],[-1.2256,39.7963],[-1.267,39.7435],[-1.2699,39.6868],[-1.3017,39.671],[-1.372,39.6836],[-1.4215,39.6514],[-1.5032,39.5529],[-1.4984,39.4961],[-1.5183,39.446],[-1.4555,39.3942],[-1.4457,39.3669],[-1.4062,39.3706],[-1.1777,39.3041],[-1.1786,39.2206],[-1.255,39.0961],[-1.2558,39.0473],[-1.1344,38.938],[-0.9813,38.9495],[-0.9209,38.8862],[-0.9126,38.8198],[-0.9537,38.7626],[-0.9035,38.6851],[-0.9571,38.6588],[-1.0221,38.6545],[-1.1053,38.7075]]]}},{"type":"Feature","properties":{"id":"spain-cataluna","country":"spain","name":"Cataluña","aliases":["Cataluña","Catalonia","Catalunya"]},"geometry":{"type":"MultiPolygon","coordinates":[[[[1.2178,41.1047],[1.1729,41.0587],[1.0977,41.0709],[0.9904,41.0397],[0.7142,40.8152],[0.6948,40.786],[0.7502,40.7656],[0.7673,40.771],[0.7502,40.786],[0.7805,40.7795],[0.8418,40.7321],[0.8737,40.7279],[0.8724,40.7071],[0.8483,40.6754],[0.7564,40.6422],[0.6771,40.5652],[0.6159,40.5535],[0.5925,40.5821],[0.6632,40.5747],[0.7327,40.6337],[0.6822,40.6342],[0.5802,40.6037],[0.5238,40.5262],[0.4561,40.5492],[0.4184,40.5908],[0.2931,40.6321],[0.2762,40.6543],[0.2877,40.6838],[0.2193,40.7305],[0.173,40.7309],[0.1675,40.7432],[0.2274,40.7717],[0.2713,40.8214],[0.2496,40.8886],[0.2897,40.9825],[0.2742,41.0189],[0.2278,41.0432],[0.2089,41.1196],[0.2931,41.1583],[0.3133,41.2069],[0.3604,41.2328],[0.3524,41.2792],[0.374,41.3389],[0.3273,41.3701],[0.3242,41.3902],[0.3485,41.4332],[0.3512,41.4776],[0.3974,41.4943],[0.4412,41.5461],[0.424,41.5929],[0.3515,41.6072],[0.3285,41.6774],[0.4059,41.753],[0.4646,41.7674],[0.5009,41.8124],[0.5936,41.8675],[0.5933,41.9137],[0.5661,41.9389],[0.6516,42.0019],[0.7031,42.1203],[0.7055,42.1784],[0.7434,42.2707],[0.7464,42.3905],[0.7014,42.4843],[0.7303,42.5007],[0.7689,42.6056],[0.7163,42.6257],[0.6634,42.6962],[0.6596,42.7299],[0.6335,42.7448],[0.6507,42.7634],[0.6397,42.7747],[0.6563,42.8384],[0.7068,42.8466],[0.8129,42.8316],[0.9211,42.7844],[0.9503,42.7961],[1.0891,42.7713],[1.1515,42.7067],[1.3426,42.7087],[1.3382,42.6944],[1.3611,42.6867],[1.4293,42.5954],[1.4065,42.5292],[1.429,42.5315],[1.45,42.5041],[1.4076,42.4868],[1.4479,42.4346],[1.5166,42.4295],[1.5444,42.4504],[1.6395,42.4664],[1.654,42.4965],[1.707,42.5028],[1.9275,42.4369],[1.9637,42.3672],[1.9957,42.3487],[2.0517,42.3524],[2.137,42.4162],[2.2774,42.4286],[2.4225,42.3837],[2.4456,42.352],[2.5148,42.3257],[2.5481,42.3522],[2.6622,42.339],[2.6403,42.3728],[2.7081,42.4129],[2.7886,42.412],[2.8508,42.4484],[2.9337,42.4702],[3.023,42.467],[3.0861,42.4272],[3.181,42.4315],[3.1702,42.3966],[3.1873,42.3495],[3.3177,42.323],[3.263,42.2399],[3.2101,42.2397],[3.1702,42.2597],[3.1188,42.2183],[3.1225,42.1405],[3.2145,42.0683],[3.1959,42.0331],[3.2079,41.99],[3.2357,41.9655],[3.2322,41.946],[3.1502,41.8454],[3.1168,41.8476],[3.0786,41.8266],[3.0691,41.7991],[2.933,41.7125],[2.8402,41.6946],[2.7785,41.6456],[2.4495,41.5352],[2.2967,41.4653],[2.1633,41.3266],[2.0603,41.2746],[1.5392,41.1874],[1.2178,41.1047]]],[[[1.9606,42.4437],[1.9456,42.4638],[1.968,42.4857],[1.9995,42.4439],[1.9606,42.4437]]]]}},{"type":"Feature","properties":{"id":"spain-ceuta","country":"spain","name":"Ceuta","aliases":["Ceuta"]},"geometry":{"type":"Polygon","coordinates":[[[-5.3407,35.8474],[-5.3784,35.8817],[-5.3989,35.9245],[-5.3093,35.9008],[-5.2831,35.9117],[-5.3407,35.8474]]]}},{"type":"Feature","properties":{"id":"spain-valenciana","country":"spain","name":"Comunidad Valenciana","aliases":["Comunidad Valenciana","Valenciana","Valencian Community","Comunitat Valenciana","Valencia"]},"geometry":{"type":"MultiPolygon","coordinates":[[[[0.154,38.831],[0.1853,38.8035],[0.1709,38.7961],[0.2277,38.7702],[0.2345,38.7423],[0.1768,38.724],[0.145,38.6863],[0.083,38.661],[0.0806,38.631],[-0.043,38.6117],[-0.0754,38.5399],[-0.177,38.5272],[-0.3294,38.47],[-0.3952,38.4138],[-0.4137,38.3648],[-0.4602,38.3601],[-0.4744,38.3367],[-0.5098,38.3384],[-0.5188,38.2987],[-0.504,38.2072],[-0.5914,38.1896],[-0.6237,38.1624],[-0.645,38.116],[-0.6545,37.9893],[-0.7089,37.9563],[-0.7606,37.8459],[-0.7871,37.8443],[-0.9167,37.9336],[-1.0258,38.0789],[-1.0281,38.1353],[-0.986,38.1952],[-0.9692,38.2708],[-0.9947,38.3249],[-1.0767,38.3497],[-1.084,38.3746],[-1.0821,38.4311],[-1.0165,38.4984],[-1.0054,38.5903],[-1.0221,38.6545],[-0.9571,38.6588],[-0.9035,38.6851],[-0.9537,38.7626],[-0.9126,38.8198],[-0.9209,38.8862],[-0.9813,38.9495],[-1.1344,38.938],[-1.2558,39.0473],[-1.255,39.0961],[-1.1786,39.2206],[-1.1777,39.3041],[-1.4062,39.3706],[-1.4457,39.3669],[-1.4555,39.3942],[-1.5183,39.446],[-1.4984,39.4961],[-1.5032,39.5529],[-1.4215,39.6514],[-1.372,39.6836],[-1.3017,39.671],[-1.2699,39.6868],[-1.267,39.7435],[-1.2256,39.7963],[-1.2029,39.8633],[-1.1962,39.9506],[-1.1455,39.9723],[-0.9725,39.974],[-0.9088,39.9429],[-0.8969,39.8597],[-0.847,39.8553],[-0.7913,39.8775],[-0.8325,39.9194],[-0.8312,39.9748],[-0.7751,40.0014],[-0.7539,40.0398],[-0.6839,40.0444],[-0.6143,40.0717],[-0.6177,40.1071],[-0.57,40.1535],[-0.55,40.2351],[-0.4516,40.2359],[-0.3979,40.2569],[-0.3909,40.2956],[-0.2865,40.3717],[-0.3399,40.4427],[-0.2722,40.4757],[-0.2979,40.5137],[-0.2944,40.6058],[-0.3746,40.6182],[-0.3773,40.6602],[-0.3458,40.6739],[-0.3045,40.6633],[-0.2341,40.6948],[-0.2234,40.7453],[-0.1839,40.7794],[-0.0745,40.7308],[0.0182,40.7261],[0.0362,40.6967],[0.0932,40.7195],[0.2193,40.7305],[0.2877,40.6838],[0.2762,40.6543],[0.2931,40.6321],[0.4184,40.5908],[0.4561,40.5492],[0.5238,40.5262],[0.3506,40.2849],[0.2053,40.1715],[0.1445,40.0788],[0.0662,40.0319],[-0.0287,39.9018],[-0.0913,39.8479],[-0.3234,39.5162],[-0.3207,39.3881],[-0.3013,39.322],[-0.2155,39.1818],[-0.2422,39.1663],[-0.21,39.0787],[-0.1059,38.9365],[0.0174,38.8643],[0.154,38.831]]],[[[-1.2347,40.123],[-1.1258,40.0979],[-1.08,40.0658],[-1.0788,40.0451],[-1.1391,40.0162],[-1.243,39.9974],[-1.3783,40.0221],[-1.4129,40.1048],[-1.4523,40.1307],[-1.4485,40.1498],[-1.3436,40.1431],[-1.3194,40.1565],[-1.3142,40.1953],[-1.2914,40.1968],[-1.2347,40.123]]]]}},{"type":"Feature","properties":{"id":"spain-extremadura","country":"spain","name":"Extremadura","aliases":["Extremadura"]},"geometry":{"type":"Polygon","coordinates":[[[-7.2735,38.6254],[-7.293,38.6563],[-7.2704,38.7375],[-7.151,38.8193],[-7.0561,38.8551],[-7.066,38.9046],[-6.9788,39.0038],[-6.9794,39.0472],[-6.9997,39.0847],[-7.0388,39.1091],[-7.1572,39.1054],[-7.1681,39.1706],[-7.2441,39.1956],[-7.2658,39.2314],[-7.2508,39.2706],[-7.3267,39.3413],[-7.3319,39.3847],[-7.3135,39.4574],[-7.3994,39.4937],[-7.4176,39.5242],[-7.5158,39.5938],[-7.5573,39.6798],[-7.3414,39.6718],[-7.2358,39.6865],[-7.1829,39.6751],[-7.0211,39.694],[-6.993,39.7742],[-7.0003,39.8025],[-6.9277,39.8619],[-6.9252,39.9179],[-6.8797,40.0092],[-6.9557,40.1029],[-7.0277,40.1326],[-7.0431,40.1814],[-7.0158,40.2255],[-6.9547,40.2534],[-6.8964,40.2555],[-6.8745,40.2792],[-6.8147,40.2444],[-6.7176,40.2589],[-6.6886,40.2497],[-6.571,40.2765],[-6.5469,40.3336],[-6.2367,40.4794],[-6.2067,40.4776],[-6.0691,40.4002],[-6.0932,40.3537],[-5.9256,40.2815],[-5.8965,40.29],[-5.8751,40.3217],[-5.8042,40.343],[-5.7816,40.3234],[-5.7836,40.2861],[-5.7277,40.294],[-5.6869,40.2815],[-5.6038,40.2194],[-5.5398,40.1974],[-5.4863,40.2013],[-5.4236,40.2431],[-5.3546,40.2552],[-5.3615,40.1648],[-5.328,40.1159],[-5.365,40.0933],[-5.3906,39.8936],[-5.3862,39.881],[-5.3215,39.8875],[-5.2893,39.8617],[-5.3143,39.7934],[-5.3081,39.7583],[-5.2603,39.7523],[-5.2087,39.7927],[-5.1681,39.7929],[-5.1654,39.7472],[-5.1406,39.7124],[-5.1574,39.6497],[-5.1964,39.5877],[-5.0792,39.4928],[-5.0392,39.4781],[-4.9665,39.4062],[-4.8801,39.3669],[-4.767,39.4046],[-4.6927,39.4498],[-4.6779,39.4176],[-4.7109,39.3441],[-4.7562,39.3062],[-4.7157,39.2321],[-4.6584,39.1739],[-4.7273,39.1965],[-4.8068,39.1988],[-4.847,39.1655],[-4.8674,39.1061],[-4.8347,39.0476],[-4.8773,39.0326],[-4.9286,39.0515],[-4.9541,39.0456],[-4.9206,38.9641],[-4.8401,38.9396],[-4.8457,38.892],[-4.9273,38.8703],[-4.9908,38.7393],[-5.1705,38.7138],[-5.1808,38.666],[-5.2558,38.6344],[-5.3068,38.5855],[-5.3624,38.5839],[-5.4196,38.5158],[-5.5694,38.4253],[-5.5671,38.3363],[-5.5229,38.2707],[-5.5178,38.2376],[-5.5382,38.1624],[-5.581,38.1351],[-5.6235,38.1369],[-5.7109,38.0887],[-5.7282,38.0954],[-5.7347,38.1234],[-5.6917,38.1538],[-5.7138,38.18],[-5.7404,38.1902],[-5.8371,38.1743],[-5.9154,38.1141],[-5.9137,38.0596],[-5.9411,38.0183],[-5.976,37.9986],[-6.1141,37.9786],[-6.1833,37.939],[-6.3563,38.0],[-6.3724,38.0312],[-6.424,38.0568],[-6.4848,38.0164],[-6.5717,38.0239],[-6.6173,38.0868],[-6.8019,38.1087],[-6.8131,38.1188],[-6.7979,38.1729],[-6.9338,38.2093],[-7.1035,38.1736],[-7.1269,38.1909],[-7.1672,38.2721],[-7.3171,38.4246],[-7.3592,38.4464],[-7.3352,38.4694],[-7.3456,38.4941],[-7.2735,38.6254]]]}},{"type":"Feature","properties":{"id":"spain-galicia","country":"spain","name":"Galicia","aliases":["Galicia"]},"geometry":{"type":"Polygon","coordinates":[[[-8.2074,42.0858],[-8.2043,42.1288],[-8.2224,42.1536],[-8.3467,42.1017],[-8.6269,42.051],[-8.6708,41.9998],[-8.7508,41.969],[-8.7771,41.9372],[-8.8647,41.8889],[-8.8813,41.8933],[-8.8955,42.1191],[-8.8265,42.1305],[-8.8237,42.1476],[-8.847,42.1608],[-8.772,42.2222],[-8.6252,42.3019],[-8.6227,42.3475],[-8.6748,42.299],[-8.785,42.2601],[-8.8675,42.2564],[-8.8533,42.3048],[-8.8272,42.2967],[-8.8307,42.3416],[-8.772,42.3427],[-8.6553,42.4414],[-8.6945,42.4396],[-8.7576,42.4072],[-8.8436,42.4037],[-8.8675,42.4147],[-8.888,42.4556],[-8.9426,42.4693],[-8.8813,42.4966],[-8.8608,42.485],[-8.8743,42.4693],[-8.8265,42.4619],[-8.8129,42.5028],[-8.823,42.5695],[-8.7755,42.6047],[-8.7309,42.6884],[-8.785,42.6406],[-8.8395,42.6824],[-8.857,42.6491],[-8.847,42.6406],[-8.8688,42.6175],[-8.9034,42.6255],[-8.9364,42.6064],[-8.9222,42.5937],[-8.9699,42.5792],[-8.9808,42.5512],[-9.0115,42.5307],[-9.0264,42.5431],[-9.0334,42.5781],[-9.0709,42.5961],[-9.0301,42.7077],[-8.8983,42.7923],[-8.8877,42.8311],[-8.9084,42.8395],[-8.9126,42.8166],[-8.951,42.7951],[-9.0489,42.7947],[-9.0456,42.778],[-9.0687,42.7597],[-9.1003,42.7575],[-9.135,42.8128],[-9.1003,42.8333],[-9.1412,42.8574],[-9.1487,42.8845],[-9.1345,42.9175],[-9.1959,42.9493],[-9.1958,42.9266],[-9.2242,42.9402],[-9.2731,42.8933],[-9.292,42.9288],[-9.251,43.0168],[-9.2795,43.055],[-9.2579,43.0609],[-9.2176,43.1144],[-9.1898,43.1023],[-9.1077,43.1411],[-9.2084,43.1379],[-9.2176,43.1553],[-9.1379,43.2015],[-9.0524,43.1964],[-9.0115,43.2388],[-8.9857,43.2269],[-8.9325,43.2353],[-8.9153,43.245],[-8.9482,43.2499],[-8.988,43.283],[-8.83,43.3412],[-8.7856,43.3124],[-8.6931,43.2934],[-8.5925,43.3242],[-8.5584,43.3132],[-8.443,43.3753],[-8.3883,43.3859],[-8.3536,43.3486],[-8.3307,43.4057],[-8.2672,43.3859],[-8.2102,43.3132],[-8.2096,43.3907],[-8.1754,43.4163],[-8.2648,43.4273],[-8.3052,43.4511],[-8.1788,43.4733],[-8.1686,43.492],[-8.2573,43.4777],[-8.2437,43.4852],[-8.2573,43.492],[-8.289,43.473],[-8.3331,43.4715],[-8.3166,43.5229],[-8.2921,43.5329],[-8.3127,43.5671],[-8.2322,43.5755],[-8.0867,43.6565],[-8.0746,43.6396],[-8.0519,43.6428],[-8.0655,43.6428],[-8.0519,43.6565],[-8.074,43.6785],[-8.0593,43.7094],[-7.9812,43.7178],[-7.9086,43.7663],[-7.8808,43.7633],[-7.8465,43.718],[-7.8676,43.718],[-7.8738,43.6845],[-7.9086,43.6702],[-7.8584,43.6682],[-7.8492,43.6756],[-7.8676,43.6975],[-7.8192,43.6975],[-7.826,43.7117],[-7.812,43.7231],[-7.7128,43.7607],[-7.6855,43.7934],[-7.6683,43.7725],[-7.6956,43.7459],[-7.6916,43.7272],[-7.641,43.7527],[-7.616,43.6885],[-7.5864,43.718],[-7.5414,43.7316],[-7.3671,43.6801],[-7.3041,43.5986],[-7.2567,43.5816],[-7.2711,43.5611],[-7.0793,43.5686],[-7.0323,43.553],[-7.0489,43.4779],[-7.1127,43.4293],[-7.1609,43.4291],[-7.1701,43.3908],[-7.13,43.3786],[-7.1216,43.3368],[-7.0713,43.2977],[-7.051,43.2373],[-6.9656,43.195],[-6.9738,43.1592],[-6.9593,43.1388],[-6.9267,43.138],[-6.8663,43.1753],[-6.8322,43.1399],[-6.8315,43.1202],[-6.869,43.0953],[-6.9452,43.0767],[-6.9885,43.0193],[-6.9664,42.9943],[-6.9513,43.0251],[-6.9137,42.9947],[-6.8689,42.9887],[-6.8369,42.9627],[-6.8283,42.9148],[-6.8605,42.8745],[-6.8633,42.8084],[-6.9286,42.7501],[-6.9657,42.747],[-7.0377,42.6982],[-7.0143,42.6413],[-7.0443,42.6171],[-7.0428,42.5776],[-7.071,42.5035],[-6.9831,42.4948],[-6.92,42.5128],[-6.8211,42.4851],[-6.813,42.4389],[-6.8391,42.4101],[-6.7357,42.3411],[-6.7406,42.2982],[-6.8055,42.2179],[-6.8668,42.217],[-6.8984,42.2002],[-7.0247,42.0757],[-7.0198,42.0562],[-6.966,42.033],[-6.9835,41.963],[-7.0513,41.942],[-7.1597,41.9857],[-7.1999,41.9637],[-7.1979,41.9015],[-7.2187,41.879],[-7.3225,41.8454],[-7.3919,41.842],[-7.4427,41.806],[-7.4694,41.8525],[-7.5158,41.865],[-7.5467,41.832],[-7.6061,41.8255],[-7.6228,41.8417],[-7.6074,41.8732],[-7.6612,41.8749],[-7.722,41.8993],[-7.8966,41.8579],[-7.9061,41.9139],[-7.9258,41.9082],[-7.9448,41.867],[-7.9936,41.8637],[-8.0486,41.8164],[-8.1796,41.8107],[-8.177,41.8499],[-8.2204,41.8682],[-8.2302,41.9047],[-8.1821,41.9654],[-8.108,42.0109],[-8.0951,42.0409],[-8.1376,42.0729],[-8.1913,42.0621],[-8.2074,42.0858]]]}},{"type":"Feature","properties":{"id":"spain-islas-baleares","country":"spain","name":"Islas Baleares","aliases":["Islas Baleares","Balearic Islands","Illes Balears","Baleares"]},"geometry":{"type":"MultiPolygon","coordinates":[[[[1.5234,38.6494],[1.4581,38.6813],[1.397,38.6386],[1.3829,38.6421],[1.3937,38.7042],[1.3828,38.7116],[1.4181,38.7279],[1.4354,38.7554],[1.4861,38.6946],[1.5264,38.6778],[1.5657,38.6915],[1.5814,38.6531],[1.5234,38.6494]]],[[[1.5933,39.0202],[1.5762,38.9858],[1.5098,38.9302],[1.4147,38.8906],[1.4031,38.8323],[1.3706,38.8318],[1.3435,38.8624],[1.3078,38.8579],[1.2835,38.8746],[1.2599,38.8579],[1.2166,38.8851],[1.2184,38.9541],[1.301,38.9678],[1.2928,39.0333],[1.3568,39.0776],[1.4033,39.0776],[1.5371,39.118],[1.5979,39.0981],[1.6231,39.0292],[1.5933,39.0202]]],[[[2.9136,39.152],[2.9806,39.1856],[2.9823,39.1392],[2.9622,39.1161],[2.9309,39.1182],[2.9136,39.152]]],[[[3.406,39.592],[3.3233,39.5239],[3.2918,39.4758],[3.2825,39.4201],[3.2688,39.4276],[3.2526,39.3862],[3.221,39.3599],[3.0608,39.2691],[3.0013,39.3177],[2.9914,39.3473],[2.9588,39.3632],[2.7866,39.3759],[2.7366,39.4621],[2.7549,39.5026],[2.7435,39.5234],[2.6817,39.5587],[2.6553,39.5647],[2.5691,39.5315],[2.5202,39.4728],[2.4927,39.4702],[2.469,39.5059],[2.4806,39.5162],[2.4539,39.5374],[2.3919,39.5237],[2.3508,39.5765],[2.3577,39.6119],[2.4683,39.6594],[2.5176,39.7001],[2.5697,39.7131],[2.6314,39.7701],[2.6519,39.7701],[2.8132,39.8726],[2.8436,39.8726],[2.9333,39.9145],[3.1795,39.9688],[3.2142,39.9551],[3.1155,39.9088],[3.0969,39.9135],[3.0947,39.8812],[3.2068,39.893],[3.1872,39.8544],[3.1263,39.8319],[3.1365,39.7888],[3.1626,39.7691],[3.2239,39.7497],[3.2925,39.7497],[3.3545,39.7844],[3.4744,39.7497],[3.4539,39.6597],[3.4019,39.6232],[3.406,39.592]]],[[[4.2481,39.8165],[3.9814,39.9361],[3.8693,39.9255],[3.8307,39.9361],[3.8505,39.9839],[3.8032,40.0181],[3.8219,40.0476],[4.052,40.0582],[4.1051,40.0794],[4.1423,40.0248],[4.1705,40.0646],[4.1786,40.0388],[4.2649,39.9864],[4.2724,39.9553],[4.2546,39.9497],[4.298,39.942],[4.3371,39.8672],[4.3029,39.8876],[4.3001,39.8218],[4.2481,39.8165]]]]}},{"type":"Feature","properties":{"id":"spain-la-rioja","country":"spain","name":"La Rioja","aliases":["La Rioja"]},"geometry":{"type":"Polygon","coordinates":[[[-2.462,42.5073],[-2.3433,42.483],[-2.2784,42.4899],[-2.1914,42.4429],[-2.0765,42.4426],[-2.0553,42.4284],[-2.0696,42.4148],[-2.0556,42.3991],[-1.9767,42.393],[-1.8635,42.3049],[-1.8573,42.2776],[-1.8293,42.2776],[-1.6971,42.2158],[-1.6882,42.1431],[-1.8234,42.1456],[-1.9015,42.0619],[-1.8906,42.0253],[-1.8445,41.982],[-1.8577,41.9548],[-1.9679,41.9184],[-2.1054,41.9571],[-2.1172,41.9849],[-2.1067,42.0092],[-2.1494,42.0508],[-2.1232,42.0837],[-2.1379,42.1016],[-2.2563,42.0894],[-2.2961,42.1378],[-2.4105,42.1386],[-2.5084,42.1103],[-2.5157,42.0688],[-2.5729,42.0001],[-2.6641,41.9996],[-2.7436,42.0225],[-2.7126,42.1013],[-2.7252,42.1178],[-2.7622,42.1181],[-2.795,42.085],[-2.8016,42.0473],[-2.8709,42.0147],[-2.9102,42.0234],[-2.9342,42.0827],[-3.0263,42.088],[-3.1204,42.1963],[-3.0879,42.27],[-3.1079,42.349],[-3.056,42.3803],[-3.0492,42.4523],[-3.0832,42.4915],[-3.07,42.5291],[-3.1152,42.5408],[-3.0605,42.5994],[-3.0721,42.6321],[-3.0142,42.6409],[-2.9067,42.6263],[-2.8373,42.6441],[-2.836,42.6215],[-2.8127,42.6111],[-2.821,42.5843],[-2.78,42.5856],[-2.7618,42.6145],[-2.734,42.6157],[-2.6891,42.5895],[-2.6847,42.5378],[-2.6321,42.5125],[-2.5951,42.5175],[-2.5835,42.4967],[-2.522,42.5104],[-2.524,42.5251],[-2.5015,42.5377],[-2.462,42.5073]]]}},{"type":"Feature","properties":{"id":"spain-madrid","country":"spain","name":"Madrid","aliases":["Madrid","Community of Madrid","Comunidad de Madrid"]},"geometry":{"type":"MultiPolygon","coordinates":[[[[-3.063,40.0981],[-3.0938,40.0726],[-3.1635,40.0662],[-3.1873,40.0884],[-3.3419,40.0446],[-3.3718,40.0574],[-3.5021,40.0487],[-3.5267,40.0232],[-3.6327,39.9917],[-3.6387,39.9683],[-3.7359,39.939],[-3.8097,39.8935],[-3.8739,39.9267],[-3.7786,39.9537],[-3.6337,40.0434],[-3.6141,40.1065],[-3.6733,40.1319],[-3.7587,40.1378],[-3.7938,40.165],[-3.999,40.2216],[-4.0573,40.2583],[-4.1326,40.2518],[-4.1747,40.2837],[-4.2341,40.2689],[-4.296,40.2208],[-4.341,40.2493],[-4.3499,40.2983],[-4.3659,40.3095],[-4.4397,40.2392],[-4.5112,40.2028],[-4.5719,40.212],[-4.5316,40.2893],[-4.5376,40.3341],[-4.4695,40.3201],[-4.4188,40.4025],[-4.3248,40.4133],[-4.319,40.544],[-4.2886,40.5729],[-4.286,40.6268],[-4.2421,40.6028],[-4.174,40.6229],[-4.1613,40.6873],[-4.0901,40.7691],[-3.9841,40.7887],[-3.9479,40.9083],[-3.9021,40.9585],[-3.7962,40.9915],[-3.743,41.0518],[-3.6239,41.1394],[-3.5458,41.1618],[-3.484,41.095],[-3.4365,41.0774],[-3.4098,41.0122],[-3.4516,40.907],[-3.4474,40.8805],[-3.4698,40.863],[-3.4984,40.7962],[-3.4464,40.7614],[-3.4397,40.7232],[-3.4588,40.695],[-3.4343,40.6755],[-3.3892,40.6864],[-3.3555,40.6497],[-3.3182,40.6463],[-3.326,40.5978],[-3.2931,40.5685],[-3.293,40.5355],[-3.2485,40.5415],[-3.2045,40.513],[-3.1965,40.4435],[-3.1571,40.4254],[-3.1387,40.3947],[-3.1531,40.3362],[-3.178,40.3126],[-3.1859,40.2495],[-3.1711,40.2425],[-3.1248,40.2749],[-3.1038,40.2699],[-3.0831,40.2277],[-3.063,40.0981]]],[[[-4.3219,40.6579],[-4.2993,40.6962],[-4.2763,40.6927],[-4.2584,40.6616],[-4.3219,40.6579]]]]}},{"type":"Feature","properties":{"id":"spain-melilla","country":"spain","name":"Melilla","aliases":["Melilla"]},"geometry":{"type":"Polygon","coordinates":[[[-2.943,35.2679],[-2.9669,35.3139],[-2.9478,35.3298],[-2.9129,35.2769],[-2.943,35.2679]]]}},{"type":"Feature","properties":{"id":"spain-murcia","country":"spain","name":"Murcia","aliases":["Murcia","Region of Murcia","Región de Murcia"]},"geometry":{"type":"MultiPolygon","coordinates":[[[[-0.7401,37.7025],[-0.7265,37.6652],[-0.7469,37.6838],[-0.7545,37.7744],[-0.7327,37.7477],[-0.7401,37.7025]]],[[[-0.7607,37.7961],[-0.788,37.8228],[-0.8124,37.7701],[-0.8561,37.7425],[-0.8099,37.6669],[-0.7548,37.6413],[-0.708,37.643],[-0.7053,37.6195],[-0.7279,37.6034],[-0.9252,37.5559],[-0.9735,37.5764],[-1.0878,37.5809],[-1.12,37.559],[-1.1058,37.5321],[-1.2427,37.5792],[-1.2617,37.5577],[-1.3237,37.562],[-1.4709,37.4822],[-1.4969,37.4278],[-1.515,37.4332],[-1.6416,37.381],[-1.7324,37.4384],[-1.8264,37.4454],[-2.0007,37.6538],[-2.0028,37.788],[-1.9757,37.8659],[-2.1718,37.8964],[-2.2322,37.9264],[-2.2962,38.0006],[-2.3385,38.0265],[-2.3242,38.0624],[-2.2119,38.1959],[-2.1274,38.2352],[-2.0429,38.2984],[-1.9928,38.2795],[-1.9262,38.291],[-1.7505,38.3803],[-1.6909,38.3702],[-1.6819,38.3316],[-1.6546,38.3147],[-1.5673,38.3262],[-1.481,38.3883],[-1.502,38.5349],[-1.4543,38.5897],[-1.4336,38.6558],[-1.3715,38.7027],[-1.3342,38.6867],[-1.2432,38.7381],[-1.1742,38.7541],[-1.1199,38.7401],[-1.1053,38.7075],[-1.0221,38.6545],[-1.0054,38.5903],[-1.0194,38.4906],[-1.0756,38.4421],[-1.0844,38.4157],[-1.0767,38.3497],[-0.9947,38.3249],[-0.9692,38.2708],[-0.986,38.1952],[-1.0281,38.1353],[-1.0258,38.0789],[-0.8887,37.908],[-0.8387,37.868],[-0.7606,37.8459],[-0.7607,37.7961]]]]}},{"type":"Feature","properties":{"id":"spain-foral-de-navarra","country":"spain","name":"Navarra","aliases":["Navarra","Foral de Navarra","Navarre","Chartered Community of Navarre","Comunidad Foral de Navarra"]},"geometry":{"type":"MultiPolygon","coordinates":[[[[-1.1656,42.4119],[-1.1904,42.4028],[-1.1945,42.4243],[-1.1581,42.4367],[-1.1656,42.4119]]],[[[-1.1342,42.4467],[-1.1127,42.4822],[-1.0672,42.4367],[-1.1342,42.4467]]],[[[-1.6219,43.247],[-1.5876,43.2516],[-1.559,43.2841],[-1.4322,43.265],[-1.4035,43.2433],[-1.3997,43.2067],[-1.4258,43.1353],[-1.4878,43.0818],[-1.435,43.0357],[-1.3661,43.0333],[-1.3483,43.0931],[-1.3086,43.1136],[-1.286,43.1092],[-1.3151,43.0829],[-1.3106,43.0695],[-1.2749,43.0468],[-1.2169,43.0393],[-1.1499,43.0057],[-1.0285,42.9867],[-0.9432,42.9479],[-0.7864,42.9533],[-0.7597,42.9465],[-0.745,42.9187],[-0.8062,42.9044],[-0.8504,42.8405],[-0.867,42.7699],[-0.9044,42.7426],[-1.0246,42.6961],[-1.0445,42.65],[-1.145,42.6414],[-1.1723,42.6135],[-1.1548,42.6018],[-1.2053,42.5581],[-1.2574,42.5532],[-1.2782,42.532],[-1.2727,42.4876],[-1.342,42.4148],[-1.3491,42.3792],[-1.331,42.358],[-1.384,42.3004],[-1.4164,42.2206],[-1.3925,42.1208],[-1.3507,42.0727],[-1.3165,42.0628],[-1.316,42.0371],[-1.4193,41.9089],[-1.4907,41.9227],[-1.5559,41.9116],[-1.6394,41.9576],[-1.7042,41.9551],[-1.7677,41.9906],[-1.8524,42.0012],[-1.8906,42.0253],[-1.8999,42.0694],[-1.8234,42.1456],[-1.6882,42.1431],[-1.6971,42.2158],[-1.8293,42.2776],[-1.8573,42.2776],[-1.8635,42.3049],[-1.9767,42.393],[-2.0556,42.3991],[-2.0696,42.4148],[-2.0553,42.4284],[-2.0765,42.4426],[-2.1914,42.4429],[-2.2784,42.4899],[-2.3433,42.483],[-2.4061,42.4971],[-2.4007,42.5907],[-2.4213,42.5988],[-2.4501,42.576],[-2.4933,42.5953],[-2.4927,42.6093],[-2.418,42.6575],[-2.391,42.6586],[-2.3659,42.6379],[-2.2985,42.6578],[-2.3204,42.729],[-2.2794,42.7509],[-2.2744,42.791],[-2.2423,42.8392],[-2.253,42.9001],[-2.2317,42.9352],[-2.2008,42.9516],[-2.1228,42.9496],[-2.0494,42.9882],[-2.0146,43.067],[-1.9379,43.1056],[-1.9125,43.1351],[-1.9085,43.2183],[-1.8337,43.2295],[-1.7819,43.2845],[-1.6549,43.2975],[-1.6219,43.247]]]]}},{"type":"Feature","properties":{"id":"spain-pais-vasco","country":"spain","name":"País Vasco","aliases":["País Vasco","Basque Country","Euskadi"]},"geometry":{"type":"Polygon","coordinates":[[[-2.836,42.6215],[-2.8525,42.6654],[-3.0314,42.7727],[-3.0635,42.7853],[-3.1363,42.7699],[-3.129,42.7863],[-3.1512,42.8176],[-3.1125,42.8683],[-3.1142,42.8869],[-3.1957,42.8603],[-3.2174,42.8297],[-3.2801,42.8804],[-3.2241,42.9438],[-3.1661,42.9429],[-3.141,42.9161],[-3.0847,42.9055],[-2.9791,42.9336],[-2.9834,42.951],[-3.0396,42.978],[-2.9993,42.9895],[-2.9874,43.0089],[-3.0286,43.0473],[-3.0553,43.0431],[-3.0849,43.0107],[-3.1651,43.0267],[-3.1418,43.1041],[-3.1726,43.1314],[-3.1422,43.1748],[-3.2595,43.2012],[-3.4238,43.1406],[-3.4416,43.2333],[-3.3229,43.3001],[-3.2035,43.2923],[-3.1602,43.3078],[-3.1506,43.3602],[-3.1124,43.3541],[-3.0895,43.3669],[-3.0082,43.3209],[-3.0293,43.3762],[-2.9399,43.4171],[-2.9467,43.4308],[-2.9301,43.4379],[-2.7558,43.4503],[-2.7065,43.4137],[-2.691,43.3675],[-2.6778,43.4062],[-2.6612,43.4119],[-2.4835,43.3706],[-2.4644,43.3492],[-2.3674,43.3157],[-2.2847,43.3035],[-2.1963,43.3148],[-2.1278,43.2874],[-1.9604,43.3431],[-1.9187,43.321],[-1.9047,43.3284],[-1.9257,43.3426],[-1.8113,43.3951],[-1.7941,43.386],[-1.7969,43.3411],[-1.7682,43.3309],[-1.7497,43.2948],[-1.7913,43.2774],[-1.8337,43.2295],[-1.9085,43.2183],[-1.9125,43.1351],[-1.9379,43.1056],[-2.0146,43.067],[-2.0494,42.9882],[-2.1228,42.9496],[-2.2008,42.9516],[-2.2317,42.9352],[-2.253,42.9001],[-2.2423,42.8392],[-2.2744,42.791],[-2.2794,42.7509],[-2.3204,42.729],[-2.312,42.6829],[-2.2927,42.6631],[-2.3481,42.6381],[-2.4087,42.6602],[-2.4927,42.6093],[-2.4881,42.5899],[-2.4501,42.576],[-2.4213,42.5988],[-2.4007,42.5907],[-2.4061,42.4971],[-2.462,42.5073],[-2.5015,42.5377],[-2.524,42.5251],[-2.522,42.5104],[-2.5835,42.4967],[-2.5951,42.5175],[-2.6179,42.5077],[-2.6847,42.5378],[-2.6891,42.5895],[-2.734,42.6157],[-2.7618,42.6145],[-2.78,42.5856],[-2.813,42.5808],[-2.8268,42.5902],[-2.8162,42.6202],[-2.836,42.6215]],[[-2.5561,42.7564],[-2.7261,42.7951],[-2.8166,42.794],[-2.8702,42.7447],[-2.8141,42.7029],[-2.7524,42.6818],[-2.6341,42.6548],[-2.5153,42.6493],[-2.5258,42.6895],[-2.5661,42.6745],[-2.6008,42.7044],[-2.5561,42.7564]],[[-3.2689,43.2376],[-3.2861,43.2564],[-3.3042,43.2607],[-3.2992,43.2169],[-3.2689,43.2376]]]}}]}